<osm><node changeset="1" id="42919808" lat="40.746138" lon="-73.914303" timestamp="2017-01-01T00:00:00Z" uid="1" user="osmnx" version="1"><tag k="highway" v="traffic_signals" /></node><node changeset="1" id="42817794" lat="40.745116" lon="-73.920203" timestamp="2017-01-01T00:00:00Z" uid="1" user="osmnx" version="1"><tag k="highway" v="traffic_signals" /></node><node changeset="1" id="42833515" lat="40.7538889" lon="-73.9165252" timestamp="2017-01-01T00:00:00Z" uid="1" user="osmnx" version="1"><tag k="highway" v="traffic_signals" /></node><node changeset="1" id="42817797" lat="40.74501" lon="-73.919275" timestamp="2017-01-01T00:00:00Z" uid="1" user="osmnx" version="1"><tag k="highway" v="traffic_signals" /></node><node changeset="1" id="42904454" lat="40.74646" lon="-73.917086" timestamp="2017-01-01T00:00:00Z" uid="1" user="osmnx" version="1"><tag k="highway" v="traffic_signals" /></node><node changeset="1" id="42817799" lat="40.744901" lon="-73.918349" timestamp="2017-01-01T00:00:00Z" uid="1" user="osmnx" version="1"><tag k="highway" v="traffic_signals" /></node><node changeset="1" id="42864393" lat="40.747321" lon="-73.92451" timestamp="2017-01-01T00:00:00Z" uid="1" user="osmnx" version="1"><tag k="highway" v="nan" /></node><node changeset="1" id="42904586" lat="40.747214" lon="-73.923581" timestamp="2017-01-01T00:00:00Z" uid="1" user="osmnx" version="1"><tag k="highway" v="nan" /></node><node changeset="1" id="42833548" lat="40.749356" lon="-73.917456" timestamp="2017-01-01T00:00:00Z" uid="1" user="osmnx" version="1"><tag k="highway" v="nan" /></node><node changeset="1" id="42817805" lat="40.744686" lon="-73.916493" timestamp="2017-01-01T00:00:00Z" uid="1" user="osmnx" version="1"><tag k="highway" v="traffic_signals" /></node><node changeset="1" id="42923790" lat="40.746784" lon="-73.919869" timestamp="2017-01-01T00:00:00Z" uid="1" user="osmnx" version="1"><tag k="highway" v="traffic_signals" /></node><node changeset="1" id="42807823" lat="40.749034" lon="-73.914668" timestamp="2017-01-01T00:00:00Z" uid="1" user="osmnx" version="1"><tag k="highway" v="nan" /></node><node changeset="1" id="42920467" lat="40.7543973" lon="-73.9205124" timestamp="2017-01-01T00:00:00Z" uid="1" user="osmnx" version="1"><tag k="highway" v="traffic_signals" /></node><node changeset="1" id="42932884" lat="40.7527694" lon="-73.922803" timestamp="2017-01-01T00:00:00Z" uid="1" user="osmnx" version="1"><tag k="highway" v="traffic_signals" /></node><node changeset="1" id="42900618" lat="40.746891" lon="-73.920798" timestamp="2017-01-01T00:00:00Z" uid="1" user="osmnx" version="1"><tag k="highway" v="traffic_signals" /></node><node changeset="1" id="42833561" lat="40.746568" lon="-73.918014" timestamp="2017-01-01T00:00:00Z" uid="1" user="osmnx" version="1"><tag k="highway" v="traffic_signals" /></node><node changeset="1" id="42932888" lat="40.7529229" lon="-73.9221149" timestamp="2017-01-01T00:00:00Z" uid="1" user="osmnx" version="1"><tag k="highway" v="traffic_signals" /></node><node changeset="1" id="42920473" lat="40.7530611" lon="-73.9214954" timestamp="2017-01-01T00:00:00Z" uid="1" user="osmnx" version="1"><tag k="highway" v="traffic_signals" /></node><node changeset="1" id="42807836" lat="40.746246" lon="-73.915232" timestamp="2017-01-01T00:00:00Z" uid="1" user="osmnx" version="1"><tag k="highway" v="traffic_signals" /></node><node changeset="1" id="42819589" lat="40.746031" lon="-73.913373" timestamp="2017-01-01T00:00:00Z" uid="1" user="osmnx" version="1"><tag k="highway" v="traffic_signals" /></node><node changeset="1" id="42920480" lat="40.746999" lon="-73.921724" timestamp="2017-01-01T00:00:00Z" uid="1" user="osmnx" version="1"><tag k="highway" v="nan" /></node><node changeset="1" id="42917872" lat="40.7524239" lon="-73.9243514" timestamp="2017-01-01T00:00:00Z" uid="1" user="osmnx" version="1"><tag k="highway" v="traffic_signals" /></node><node changeset="1" id="42927013" lat="40.75477" lon="-73.921311" timestamp="2017-01-01T00:00:00Z" uid="1" user="osmnx" version="1"><tag k="highway" v="nan" /></node><node changeset="1" id="42859942" lat="40.749143" lon="-73.9156" timestamp="2017-01-01T00:00:00Z" uid="1" user="osmnx" version="1"><tag k="highway" v="nan" /></node><node changeset="1" id="277032714" lat="40.7517829" lon="-73.926498" timestamp="2017-01-01T00:00:00Z" uid="1" user="osmnx" version="1"><tag k="highway" v="nan" /></node><node changeset="1" id="42841773" lat="40.7539733" lon="-73.9241599" timestamp="2017-01-01T00:00:00Z" uid="1" user="osmnx" version="1"><tag k="highway" v="traffic_signals" /></node><node changeset="1" id="42917869" lat="40.7536111" lon="-73.923384" timestamp="2017-01-01T00:00:00Z" uid="1" user="osmnx" version="1"><tag k="highway" v="traffic_signals" /></node><node changeset="1" id="42892848" lat="40.748927" lon="-73.913744" timestamp="2017-01-01T00:00:00Z" uid="1" user="osmnx" version="1"><tag k="highway" v="nan" /></node><node changeset="1" id="42900657" lat="40.7540234" lon="-73.9197113" timestamp="2017-01-01T00:00:00Z" uid="1" user="osmnx" version="1"><tag k="highway" v="traffic_signals" /></node><node changeset="1" id="42841778" lat="40.7521686" lon="-73.9254889" timestamp="2017-01-01T00:00:00Z" uid="1" user="osmnx" version="1"><tag k="highway" v="traffic_signals" /></node><node changeset="1" id="42900660" lat="40.7533793" lon="-73.9201034" timestamp="2017-01-01T00:00:00Z" uid="1" user="osmnx" version="1"><tag k="highway" v="traffic_signals;crossing" /></node><node changeset="1" id="42859957" lat="40.746355" lon="-73.916158" timestamp="2017-01-01T00:00:00Z" uid="1" user="osmnx" version="1"><tag k="highway" v="traffic_signals" /></node><node changeset="1" id="42815113" lat="40.750199" lon="-73.913484" timestamp="2017-01-01T00:00:00Z" uid="1" user="osmnx" version="1"><tag k="highway" v="nan" /></node><node changeset="1" id="42815092" lat="40.7494781" lon="-73.918714" timestamp="2017-01-01T00:00:00Z" uid="1" user="osmnx" version="1"><tag k="highway" v="nan" /></node><node changeset="1" id="42904507" lat="40.7538022" lon="-73.9154643" timestamp="2017-01-01T00:00:00Z" uid="1" user="osmnx" version="1"><tag k="highway" v="traffic_signals" /></node><node changeset="1" id="42807818" lat="40.753461" lon="-73.9134878" timestamp="2017-01-01T00:00:00Z" uid="1" user="osmnx" version="1"><tag k="highway" v="traffic_signals" /></node><node changeset="1" id="42926398" lat="40.75472" lon="-73.9257596" timestamp="2017-01-01T00:00:00Z" uid="1" user="osmnx" version="1"><tag k="highway" v="traffic_signals" /></node><node changeset="1" id="42892863" lat="40.749248" lon="-73.916526" timestamp="2017-01-01T00:00:00Z" uid="1" user="osmnx" version="1"><tag k="highway" v="nan" /></node><node changeset="1" id="3569858112" lat="40.7536766" lon="-73.9187589" timestamp="2017-01-01T00:00:00Z" uid="1" user="osmnx" version="1"><tag k="highway" v="traffic_signals" /></node><node changeset="1" id="42888672" lat="40.7520713" lon="-73.926474" timestamp="2017-01-01T00:00:00Z" uid="1" user="osmnx" version="1"><tag k="highway" v="traffic_signals" /></node><node changeset="1" id="2699913196" lat="40.7494608" lon="-73.9183807" timestamp="2017-01-01T00:00:00Z" uid="1" user="osmnx" version="1"><tag k="highway" v="nan" /></node><node changeset="1" id="3536400365" lat="40.7536646" lon="-73.9146428" timestamp="2017-01-01T00:00:00Z" uid="1" user="osmnx" version="1"><tag k="highway" v="traffic_signals" /></node><node changeset="1" id="42938181" lat="40.747107" lon="-73.922653" timestamp="2017-01-01T00:00:00Z" uid="1" user="osmnx" version="1"><tag k="highway" v="traffic_signals" /></node><node changeset="1" id="42938567" lat="40.7532287" lon="-73.9225647" timestamp="2017-01-01T00:00:00Z" uid="1" user="osmnx" version="1"><tag k="highway" v="nan" /></node><node changeset="1" id="42796343" lat="40.744806" lon="-73.913626" timestamp="2017-01-01T00:00:00Z" uid="1" user="osmnx" version="1"><tag k="highway" v="nan" /></node><node changeset="1" id="42866667" lat="40.755098" lon="-73.9265696" timestamp="2017-01-01T00:00:00Z" uid="1" user="osmnx" version="1"><tag k="highway" v="traffic_signals" /></node><node changeset="1" id="42817784" lat="40.74533" lon="-73.92206" timestamp="2017-01-01T00:00:00Z" uid="1" user="osmnx" version="1"><tag k="highway" v="traffic_signals" /></node><node changeset="1" id="42816211" lat="40.750244" lon="-73.920127" timestamp="2017-01-01T00:00:00Z" uid="1" user="osmnx" version="1"><tag k="highway" v="nan" /></node><node changeset="1" id="42815107" lat="40.750111" lon="-73.915406" timestamp="2017-01-01T00:00:00Z" uid="1" user="osmnx" version="1"><tag k="highway" v="nan" /></node><node changeset="1" id="42816214" lat="40.751189" lon="-73.9151896" timestamp="2017-01-01T00:00:00Z" uid="1" user="osmnx" version="1"><tag k="highway" v="nan" /></node><node changeset="1" id="42841815" lat="40.7475188" lon="-73.9263663" timestamp="2017-01-01T00:00:00Z" uid="1" user="osmnx" version="1"><tag k="highway" v="nan" /></node><node changeset="1" id="42845872" lat="40.7532725" lon="-73.920549" timestamp="2017-01-01T00:00:00Z" uid="1" user="osmnx" version="1"><tag k="highway" v="traffic_signals" /></node><node changeset="1" id="42888668" lat="40.754348" lon="-73.9249627" timestamp="2017-01-01T00:00:00Z" uid="1" user="osmnx" version="1"><tag k="highway" v="nan" /></node><node changeset="1" id="42815838" lat="40.7524441" lon="-73.9265107" timestamp="2017-01-01T00:00:00Z" uid="1" user="osmnx" version="1"><tag k="highway" v="nan" /></node><node changeset="1" id="42815840" lat="40.7520865" lon="-73.9258903" timestamp="2017-01-01T00:00:00Z" uid="1" user="osmnx" version="1"><tag k="highway" v="nan" /></node><node changeset="1" id="1927807845" lat="40.7551516" lon="-73.9221287" timestamp="2017-01-01T00:00:00Z" uid="1" user="osmnx" version="1"><tag k="highway" v="traffic_signals" /></node><node changeset="1" id="42932839" lat="40.747422" lon="-73.9254604" timestamp="2017-01-01T00:00:00Z" uid="1" user="osmnx" version="1"><tag k="highway" v="traffic_signals" /></node><node changeset="1" id="42817769" lat="40.7458804" lon="-73.9266862" timestamp="2017-01-01T00:00:00Z" uid="1" user="osmnx" version="1"><tag k="highway" v="nan" /></node><node changeset="1" id="42817771" lat="40.745779" lon="-73.9258018" timestamp="2017-01-01T00:00:00Z" uid="1" user="osmnx" version="1"><tag k="highway" v="traffic_signals" /></node><node changeset="1" id="42815084" lat="40.749159" lon="-73.920342" timestamp="2017-01-01T00:00:00Z" uid="1" user="osmnx" version="1"><tag k="highway" v="nan" /></node><node changeset="1" id="42817773" lat="40.7456672" lon="-73.9248403" timestamp="2017-01-01T00:00:00Z" uid="1" user="osmnx" version="1"><tag k="highway" v="nan" /></node><node changeset="1" id="42824174" lat="40.7551902" lon="-73.9176628" timestamp="2017-01-01T00:00:00Z" uid="1" user="osmnx" version="1"><tag k="highway" v="traffic_signals" /></node><node changeset="1" id="42824176" lat="40.7548199" lon="-73.9168694" timestamp="2017-01-01T00:00:00Z" uid="1" user="osmnx" version="1"><tag k="highway" v="traffic_signals" /></node><node changeset="1" id="2699913200" lat="40.7496182" lon="-73.9179677" timestamp="2017-01-01T00:00:00Z" uid="1" user="osmnx" version="1"><tag k="highway" v="nan" /></node><node changeset="1" id="2699913202" lat="40.7494263" lon="-73.9180059" timestamp="2017-01-01T00:00:00Z" uid="1" user="osmnx" version="1"><tag k="highway" v="nan" /></node><node changeset="1" id="42817780" lat="40.745438" lon="-73.922989" timestamp="2017-01-01T00:00:00Z" uid="1" user="osmnx" version="1"><tag k="highway" v="traffic_signals" /></node><node changeset="1" id="42824181" lat="40.7544425" lon="-73.916061" timestamp="2017-01-01T00:00:00Z" uid="1" user="osmnx" version="1"><tag k="highway" v="traffic_signals" /></node><node changeset="1" id="42885751" lat="40.7538761" lon="-73.9175126" timestamp="2017-01-01T00:00:00Z" uid="1" user="osmnx" version="1"><tag k="highway" v="nan" /></node><node changeset="1" id="42817776" lat="40.745545" lon="-73.923916" timestamp="2017-01-01T00:00:00Z" uid="1" user="osmnx" version="1"><tag k="highway" v="traffic_signals" /></node><node changeset="1" id="42885753" lat="40.746676" lon="-73.918942" timestamp="2017-01-01T00:00:00Z" uid="1" user="osmnx" version="1"><tag k="highway" v="traffic_signals" /></node><node changeset="1" id="42817802" lat="40.744792" lon="-73.91742" timestamp="2017-01-01T00:00:00Z" uid="1" user="osmnx" version="1"><tag k="highway" v="traffic_signals" /></node><node changeset="1" id="42824187" lat="40.7540695" lon="-73.9152674" timestamp="2017-01-01T00:00:00Z" uid="1" user="osmnx" version="1"><tag k="highway" v="nan" /></node><node changeset="1" id="42923772" lat="40.753609" lon="-73.9190614" timestamp="2017-01-01T00:00:00Z" uid="1" user="osmnx" version="1"><tag k="highway" v="traffic_signals" /></node><node changeset="1" id="42817789" lat="40.745224" lon="-73.921132" timestamp="2017-01-01T00:00:00Z" uid="1" user="osmnx" version="1"><tag k="highway" v="traffic_signals" /></node><node changeset="1" id="42815088" lat="40.749345" lon="-73.919359" timestamp="2017-01-01T00:00:00Z" uid="1" user="osmnx" version="1"><tag k="highway" v="nan" /></node><way changeset="1" id="0" timestamp="2017-01-01T00:00:00Z" uid="1" user="osmnx" version="1"><nd ref="42919808" /><nd ref="42892848" /><tag k="highway" v="residential" /><tag k="lanes" v="3" /><tag k="maxspeed" v="nan" /><tag k="name" v="nan" /><tag k="oneway" v="yes" /></way><way changeset="1" id="1" timestamp="2017-01-01T00:00:00Z" uid="1" user="osmnx" version="1"><nd ref="42919808" /><nd ref="42807836" /><tag k="highway" v="residential" /><tag k="lanes" v="3" /><tag k="maxspeed" v="nan" /><tag k="name" v="Skillman Avenue" /><tag k="oneway" v="yes" /></way><way changeset="1" id="2" timestamp="2017-01-01T00:00:00Z" uid="1" user="osmnx" version="1"><nd ref="42919808" /><nd ref="42819589" /><tag k="highway" v="residential" /><tag k="lanes" v="3" /><tag k="maxspeed" v="nan" /><tag k="name" v="nan" /><tag k="oneway" v="yes" /></way><way changeset="1" id="3" timestamp="2017-01-01T00:00:00Z" uid="1" user="osmnx" version="1"><nd ref="42817794" /><nd ref="42817797" /><tag k="highway" v="residential" /><tag k="lanes" v="3" /><tag k="maxspeed" v="20 mph" /><tag k="name" v="43rd Avenue" /><tag k="oneway" v="yes" /></way><way changeset="1" id="4" timestamp="2017-01-01T00:00:00Z" uid="1" user="osmnx" version="1"><nd ref="42817794" /><nd ref="42923790" /><tag k="highway" v="residential" /><tag k="lanes" v="3" /><tag k="maxspeed" v="nan" /><tag k="name" v="nan" /><tag k="oneway" v="yes" /></way><way changeset="1" id="5" timestamp="2017-01-01T00:00:00Z" uid="1" user="osmnx" version="1"><nd ref="42817794" /><nd ref="42817789" /><tag k="highway" v="residential" /><tag k="lanes" v="3" /><tag k="maxspeed" v="nan" /><tag k="name" v="nan" /><tag k="oneway" v="yes" /></way><way changeset="1" id="6" timestamp="2017-01-01T00:00:00Z" uid="1" user="osmnx" version="1"><nd ref="42833515" /><nd ref="42904507" /><tag k="highway" v="primary" /><tag k="lanes" v="3" /><tag k="maxspeed" v="nan" /><tag k="name" v="Northern Boulevard" /><tag k="oneway" v="yes" /></way><way changeset="1" id="7" timestamp="2017-01-01T00:00:00Z" uid="1" user="osmnx" version="1"><nd ref="42833515" /><nd ref="42824181" /><tag k="highway" v="residential" /><tag k="lanes" v="3" /><tag k="maxspeed" v="nan" /><tag k="name" v="nan" /><tag k="oneway" v="yes" /></way><way changeset="1" id="8" timestamp="2017-01-01T00:00:00Z" uid="1" user="osmnx" version="1"><nd ref="42833515" /><nd ref="42885751" /><tag k="highway" v="primary" /><tag k="lanes" v="3" /><tag k="maxspeed" v="nan" /><tag k="name" v="Northern Boulevard" /><tag k="oneway" v="yes" /></way><way changeset="1" id="9" timestamp="2017-01-01T00:00:00Z" uid="1" user="osmnx" version="1"><nd ref="42817797" /><nd ref="42885753" /><tag k="highway" v="residential" /><tag k="lanes" v="3" /><tag k="maxspeed" v="nan" /><tag k="name" v="45th Street" /><tag k="oneway" v="yes" /></way><way changeset="1" id="10" timestamp="2017-01-01T00:00:00Z" uid="1" user="osmnx" version="1"><nd ref="42817797" /><nd ref="42817794" /><tag k="highway" v="residential" /><tag k="lanes" v="3" /><tag k="maxspeed" v="nan" /><tag k="name" v="nan" /><tag k="oneway" v="yes" /></way><way changeset="1" id="11" timestamp="2017-01-01T00:00:00Z" uid="1" user="osmnx" version="1"><nd ref="42817797" /><nd ref="42817799" /><tag k="highway" v="residential" /><tag k="lanes" v="3" /><tag k="maxspeed" v="20 mph" /><tag k="name" v="43rd Avenue" /><tag k="oneway" v="yes" /></way><way changeset="1" id="12" timestamp="2017-01-01T00:00:00Z" uid="1" user="osmnx" version="1"><nd ref="42904454" /><nd ref="42833561" /><tag k="highway" v="residential" /><tag k="lanes" v="3" /><tag k="maxspeed" v="nan" /><tag k="name" v="Skillman Avenue" /><tag k="oneway" v="yes" /></way><way changeset="1" id="13" timestamp="2017-01-01T00:00:00Z" uid="1" user="osmnx" version="1"><nd ref="42904454" /><nd ref="42817802" /><tag k="highway" v="residential" /><tag k="lanes" v="3" /><tag k="maxspeed" v="nan" /><tag k="name" v="nan" /><tag k="oneway" v="yes" /></way><way changeset="1" id="14" timestamp="2017-01-01T00:00:00Z" uid="1" user="osmnx" version="1"><nd ref="42904454" /><nd ref="42859957" /><tag k="highway" v="residential" /><tag k="lanes" v="3" /><tag k="maxspeed" v="nan" /><tag k="name" v="nan" /><tag k="oneway" v="yes" /></way><way changeset="1" id="15" timestamp="2017-01-01T00:00:00Z" uid="1" user="osmnx" version="1"><nd ref="42904454" /><nd ref="42892863" /><tag k="highway" v="residential" /><tag k="lanes" v="3" /><tag k="maxspeed" v="nan" /><tag k="name" v="47th Street" /><tag k="oneway" v="yes" /></way><way changeset="1" id="16" timestamp="2017-01-01T00:00:00Z" uid="1" user="osmnx" version="1"><nd ref="42817799" /><nd ref="42833561" /><tag k="highway" v="residential" /><tag k="lanes" v="3" /><tag k="maxspeed" v="nan" /><tag k="name" v="nan" /><tag k="oneway" v="yes" /></way><way changeset="1" id="17" timestamp="2017-01-01T00:00:00Z" uid="1" user="osmnx" version="1"><nd ref="42817799" /><nd ref="42817802" /><tag k="highway" v="residential" /><tag k="lanes" v="3" /><tag k="maxspeed" v="20 mph" /><tag k="name" v="43rd Avenue" /><tag k="oneway" v="yes" /></way><way changeset="1" id="18" timestamp="2017-01-01T00:00:00Z" uid="1" user="osmnx" version="1"><nd ref="42817799" /><nd ref="42817797" /><tag k="highway" v="residential" /><tag k="lanes" v="3" /><tag k="maxspeed" v="nan" /><tag k="name" v="nan" /><tag k="oneway" v="yes" /></way><way changeset="1" id="19" timestamp="2017-01-01T00:00:00Z" uid="1" user="osmnx" version="1"><nd ref="42864393" /><nd ref="42904586" /><tag k="highway" v="residential" /><tag k="lanes" v="3" /><tag k="maxspeed" v="nan" /><tag k="name" v="nan" /><tag k="oneway" v="yes" /></way><way changeset="1" id="20" timestamp="2017-01-01T00:00:00Z" uid="1" user="osmnx" version="1"><nd ref="42864393" /><nd ref="42817773" /><tag k="highway" v="residential" /><tag k="lanes" v="3" /><tag k="maxspeed" v="nan" /><tag k="name" v="nan" /><tag k="oneway" v="yes" /></way><way changeset="1" id="21" timestamp="2017-01-01T00:00:00Z" uid="1" user="osmnx" version="1"><nd ref="42864393" /><nd ref="42932839" /><tag k="highway" v="residential" /><tag k="lanes" v="3" /><tag k="maxspeed" v="nan" /><tag k="name" v="Skillman Avenue" /><tag k="oneway" v="yes" /></way><way changeset="1" id="22" timestamp="2017-01-01T00:00:00Z" uid="1" user="osmnx" version="1"><nd ref="42904586" /><nd ref="42817776" /><tag k="highway" v="residential" /><tag k="lanes" v="3" /><tag k="maxspeed" v="nan" /><tag k="name" v="40th Street" /><tag k="oneway" v="yes" /></way><way changeset="1" id="23" timestamp="2017-01-01T00:00:00Z" uid="1" user="osmnx" version="1"><nd ref="42904586" /><nd ref="42864393" /><tag k="highway" v="residential" /><tag k="lanes" v="3" /><tag k="maxspeed" v="nan" /><tag k="name" v="Skillman Avenue" /><tag k="oneway" v="yes" /></way><way changeset="1" id="24" timestamp="2017-01-01T00:00:00Z" uid="1" user="osmnx" version="1"><nd ref="42904586" /><nd ref="42938181" /><tag k="highway" v="residential" /><tag k="lanes" v="3" /><tag k="maxspeed" v="nan" /><tag k="name" v="nan" /><tag k="oneway" v="yes" /></way><way changeset="1" id="25" timestamp="2017-01-01T00:00:00Z" uid="1" user="osmnx" version="1"><nd ref="42833548" /><nd ref="42833561" /><tag k="highway" v="residential" /><tag k="lanes" v="3" /><tag k="maxspeed" v="nan" /><tag k="name" v="46th Street" /><tag k="oneway" v="yes" /></way><way changeset="1" id="26" timestamp="2017-01-01T00:00:00Z" uid="1" user="osmnx" version="1"><nd ref="42833548" /><nd ref="2699913202" /><tag k="highway" v="residential" /><tag k="lanes" v="3" /><tag k="maxspeed" v="20 mph" /><tag k="name" v="39th Avenue" /><tag k="oneway" v="yes" /></way><way changeset="1" id="27" timestamp="2017-01-01T00:00:00Z" uid="1" user="osmnx" version="1"><nd ref="42833548" /><nd ref="42892863" /><tag k="highway" v="residential" /><tag k="lanes" v="3" /><tag k="maxspeed" v="20 mph" /><tag k="name" v="39th Avenue" /><tag k="oneway" v="yes" /></way><way changeset="1" id="28" timestamp="2017-01-01T00:00:00Z" uid="1" user="osmnx" version="1"><nd ref="42817805" /><nd ref="42817802" /><tag k="highway" v="residential" /><tag k="lanes" v="3" /><tag k="maxspeed" v="nan" /><tag k="name" v="nan" /><tag k="oneway" v="yes" /></way><way changeset="1" id="29" timestamp="2017-01-01T00:00:00Z" uid="1" user="osmnx" version="1"><nd ref="42817805" /><nd ref="42859957" /><tag k="highway" v="tertiary" /><tag k="lanes" v="3" /><tag k="maxspeed" v="20 mph" /><tag k="name" v="48th Street" /><tag k="oneway" v="yes" /></way><way changeset="1" id="30" timestamp="2017-01-01T00:00:00Z" uid="1" user="osmnx" version="1"><nd ref="42923790" /><nd ref="42815088" /><tag k="highway" v="residential" /><tag k="lanes" v="3" /><tag k="maxspeed" v="nan" /><tag k="name" v="nan" /><tag k="oneway" v="yes" /></way><way changeset="1" id="31" timestamp="2017-01-01T00:00:00Z" uid="1" user="osmnx" version="1"><nd ref="42923790" /><nd ref="42885753" /><tag k="highway" v="residential" /><tag k="lanes" v="3" /><tag k="maxspeed" v="nan" /><tag k="name" v="nan" /><tag k="oneway" v="yes" /></way><way changeset="1" id="32" timestamp="2017-01-01T00:00:00Z" uid="1" user="osmnx" version="1"><nd ref="42923790" /><nd ref="42817794" /><tag k="highway" v="residential" /><tag k="lanes" v="3" /><tag k="maxspeed" v="nan" /><tag k="name" v="44th Street" /><tag k="oneway" v="yes" /></way><way changeset="1" id="33" timestamp="2017-01-01T00:00:00Z" uid="1" user="osmnx" version="1"><nd ref="42923790" /><nd ref="42900618" /><tag k="highway" v="residential" /><tag k="lanes" v="3" /><tag k="maxspeed" v="nan" /><tag k="name" v="Skillman Avenue" /><tag k="oneway" v="yes" /></way><way changeset="1" id="34" timestamp="2017-01-01T00:00:00Z" uid="1" user="osmnx" version="1"><nd ref="42807823" /><nd ref="42892848" /><tag k="highway" v="tertiary" /><tag k="lanes" v="3" /><tag k="maxspeed" v="20 mph" /><tag k="name" v="39th Avenue" /><tag k="oneway" v="yes" /></way><way changeset="1" id="35" timestamp="2017-01-01T00:00:00Z" uid="1" user="osmnx" version="1"><nd ref="42807823" /><nd ref="42807836" /><tag k="highway" v="residential" /><tag k="lanes" v="3" /><tag k="maxspeed" v="nan" /><tag k="name" v="nan" /><tag k="oneway" v="yes" /></way><way changeset="1" id="36" timestamp="2017-01-01T00:00:00Z" uid="1" user="osmnx" version="1"><nd ref="42807823" /><nd ref="42859942" /><tag k="highway" v="tertiary" /><tag k="lanes" v="3" /><tag k="maxspeed" v="20 mph" /><tag k="name" v="39th Avenue" /><tag k="oneway" v="yes" /></way><way changeset="1" id="37" timestamp="2017-01-01T00:00:00Z" uid="1" user="osmnx" version="1"><nd ref="42920467" /><nd ref="42900657" /><tag k="highway" v="tertiary" /><tag k="lanes" v="3" /><tag k="maxspeed" v="nan" /><tag k="name" v="35th Avenue" /><tag k="oneway" v="yes" /></way><way changeset="1" id="38" timestamp="2017-01-01T00:00:00Z" uid="1" user="osmnx" version="1"><nd ref="42920467" /><nd ref="42927013" /><tag k="highway" v="tertiary" /><tag k="lanes" v="3" /><tag k="maxspeed" v="nan" /><tag k="name" v="35th Avenue" /><tag k="oneway" v="yes" /></way><way changeset="1" id="39" timestamp="2017-01-01T00:00:00Z" uid="1" user="osmnx" version="1"><nd ref="42920467" /><nd ref="42920473" /><tag k="highway" v="residential" /><tag k="lanes" v="3" /><tag k="maxspeed" v="nan" /><tag k="name" v="42nd Street" /><tag k="oneway" v="yes" /></way><way changeset="1" id="40" timestamp="2017-01-01T00:00:00Z" uid="1" user="osmnx" version="1"><nd ref="42932884" /><nd ref="42932888" /><tag k="highway" v="primary" /><tag k="lanes" v="3" /><tag k="maxspeed" v="25 mph" /><tag k="name" v="Northern Boulevard" /><tag k="oneway" v="yes" /></way><way changeset="1" id="41" timestamp="2017-01-01T00:00:00Z" uid="1" user="osmnx" version="1"><nd ref="42932884" /><nd ref="42917872" /><tag k="highway" v="primary" /><tag k="lanes" v="3" /><tag k="maxspeed" v="25 mph" /><tag k="name" v="Northern Boulevard" /><tag k="oneway" v="yes" /></way><way changeset="1" id="42" timestamp="2017-01-01T00:00:00Z" uid="1" user="osmnx" version="1"><nd ref="42932884" /><nd ref="42938567" /><tag k="highway" v="residential" /><tag k="lanes" v="3" /><tag k="maxspeed" v="nan" /><tag k="name" v="41st Street" /><tag k="oneway" v="yes" /></way><way changeset="1" id="43" timestamp="2017-01-01T00:00:00Z" uid="1" user="osmnx" version="1"><nd ref="42900618" /><nd ref="42920480" /><tag k="highway" v="residential" /><tag k="lanes" v="3" /><tag k="maxspeed" v="nan" /><tag k="name" v="Skillman Avenue" /><tag k="oneway" v="yes" /></way><way changeset="1" id="44" timestamp="2017-01-01T00:00:00Z" uid="1" user="osmnx" version="1"><nd ref="42900618" /><nd ref="42815084" /><tag k="highway" v="residential" /><tag k="lanes" v="3" /><tag k="maxspeed" v="nan" /><tag k="name" v="43rd Street" /><tag k="oneway" v="yes" /></way><way changeset="1" id="45" timestamp="2017-01-01T00:00:00Z" uid="1" user="osmnx" version="1"><nd ref="42900618" /><nd ref="42817789" /><tag k="highway" v="residential" /><tag k="lanes" v="3" /><tag k="maxspeed" v="nan" /><tag k="name" v="43rd Street" /><tag k="oneway" v="yes" /></way><way changeset="1" id="46" timestamp="2017-01-01T00:00:00Z" uid="1" user="osmnx" version="1"><nd ref="42900618" /><nd ref="42923790" /><tag k="highway" v="residential" /><tag k="lanes" v="3" /><tag k="maxspeed" v="nan" /><tag k="name" v="nan" /><tag k="oneway" v="yes" /></way><way changeset="1" id="47" timestamp="2017-01-01T00:00:00Z" uid="1" user="osmnx" version="1"><nd ref="42833561" /><nd ref="42885753" /><tag k="highway" v="residential" /><tag k="lanes" v="3" /><tag k="maxspeed" v="nan" /><tag k="name" v="Skillman Avenue" /><tag k="oneway" v="yes" /></way><way changeset="1" id="48" timestamp="2017-01-01T00:00:00Z" uid="1" user="osmnx" version="1"><nd ref="42833561" /><nd ref="42833548" /><tag k="highway" v="residential" /><tag k="lanes" v="3" /><tag k="maxspeed" v="nan" /><tag k="name" v="nan" /><tag k="oneway" v="yes" /></way><way changeset="1" id="49" timestamp="2017-01-01T00:00:00Z" uid="1" user="osmnx" version="1"><nd ref="42833561" /><nd ref="42904454" /><tag k="highway" v="residential" /><tag k="lanes" v="3" /><tag k="maxspeed" v="nan" /><tag k="name" v="nan" /><tag k="oneway" v="yes" /></way><way changeset="1" id="50" timestamp="2017-01-01T00:00:00Z" uid="1" user="osmnx" version="1"><nd ref="42833561" /><nd ref="42817799" /><tag k="highway" v="residential" /><tag k="lanes" v="3" /><tag k="maxspeed" v="nan" /><tag k="name" v="46th Street" /><tag k="oneway" v="yes" /></way><way changeset="1" id="51" timestamp="2017-01-01T00:00:00Z" uid="1" user="osmnx" version="1"><nd ref="42932888" /><nd ref="42920473" /><tag k="highway" v="primary" /><tag k="lanes" v="3" /><tag k="maxspeed" v="25 mph" /><tag k="name" v="Northern Boulevard" /><tag k="oneway" v="yes" /></way><way changeset="1" id="52" timestamp="2017-01-01T00:00:00Z" uid="1" user="osmnx" version="1"><nd ref="42932888" /><nd ref="42932884" /><tag k="highway" v="primary" /><tag k="lanes" v="3" /><tag k="maxspeed" v="25 mph" /><tag k="name" v="Northern Boulevard" /><tag k="oneway" v="yes" /></way><way changeset="1" id="53" timestamp="2017-01-01T00:00:00Z" uid="1" user="osmnx" version="1"><nd ref="42932888" /><nd ref="42938567" /><tag k="highway" v="tertiary" /><tag k="lanes" v="3" /><tag k="maxspeed" v="nan" /><tag k="name" v="36th Avenue" /><tag k="oneway" v="yes" /></way><way changeset="1" id="54" timestamp="2017-01-01T00:00:00Z" uid="1" user="osmnx" version="1"><nd ref="42920473" /><nd ref="42932888" /><tag k="highway" v="primary" /><tag k="lanes" v="3" /><tag k="maxspeed" v="25 mph" /><tag k="name" v="Northern Boulevard" /><tag k="oneway" v="yes" /></way><way changeset="1" id="55" timestamp="2017-01-01T00:00:00Z" uid="1" user="osmnx" version="1"><nd ref="42920473" /><nd ref="42845872" /><tag k="highway" v="primary" /><tag k="lanes" v="3" /><tag k="maxspeed" v="nan" /><tag k="name" v="Northern Boulevard" /><tag k="oneway" v="yes" /></way><way changeset="1" id="56" timestamp="2017-01-01T00:00:00Z" uid="1" user="osmnx" version="1"><nd ref="42920473" /><nd ref="42920467" /><tag k="highway" v="residential" /><tag k="lanes" v="3" /><tag k="maxspeed" v="nan" /><tag k="name" v="nan" /><tag k="oneway" v="yes" /></way><way changeset="1" id="57" timestamp="2017-01-01T00:00:00Z" uid="1" user="osmnx" version="1"><nd ref="42807836" /><nd ref="42919808" /><tag k="highway" v="residential" /><tag k="lanes" v="3" /><tag k="maxspeed" v="nan" /><tag k="name" v="nan" /><tag k="oneway" v="yes" /></way><way changeset="1" id="58" timestamp="2017-01-01T00:00:00Z" uid="1" user="osmnx" version="1"><nd ref="42807836" /><nd ref="42859957" /><tag k="highway" v="residential" /><tag k="lanes" v="3" /><tag k="maxspeed" v="nan" /><tag k="name" v="Skillman Avenue" /><tag k="oneway" v="yes" /></way><way changeset="1" id="59" timestamp="2017-01-01T00:00:00Z" uid="1" user="osmnx" version="1"><nd ref="42807836" /><nd ref="42807823" /><tag k="highway" v="residential" /><tag k="lanes" v="3" /><tag k="maxspeed" v="nan" /><tag k="name" v="49th Street" /><tag k="oneway" v="yes" /></way><way changeset="1" id="60" timestamp="2017-01-01T00:00:00Z" uid="1" user="osmnx" version="1"><nd ref="42819589" /><nd ref="42919808" /><tag k="highway" v="residential" /><tag k="lanes" v="3" /><tag k="maxspeed" v="nan" /><tag k="name" v="Skillman Avenue" /><tag k="oneway" v="yes" /></way><way changeset="1" id="61" timestamp="2017-01-01T00:00:00Z" uid="1" user="osmnx" version="1"><nd ref="42819589" /><nd ref="42796343" /><tag k="highway" v="residential" /><tag k="lanes" v="3" /><tag k="maxspeed" v="nan" /><tag k="name" v="nan" /><tag k="oneway" v="yes" /></way><way changeset="1" id="62" timestamp="2017-01-01T00:00:00Z" uid="1" user="osmnx" version="1"><nd ref="42920480" /><nd ref="42817784" /><tag k="highway" v="residential" /><tag k="lanes" v="3" /><tag k="maxspeed" v="nan" /><tag k="name" v="42nd Street" /><tag k="oneway" v="yes" /></way><way changeset="1" id="63" timestamp="2017-01-01T00:00:00Z" uid="1" user="osmnx" version="1"><nd ref="42920480" /><nd ref="42900618" /><tag k="highway" v="residential" /><tag k="lanes" v="3" /><tag k="maxspeed" v="nan" /><tag k="name" v="nan" /><tag k="oneway" v="yes" /></way><way changeset="1" id="64" timestamp="2017-01-01T00:00:00Z" uid="1" user="osmnx" version="1"><nd ref="42920480" /><nd ref="42938181" /><tag k="highway" v="residential" /><tag k="lanes" v="3" /><tag k="maxspeed" v="nan" /><tag k="name" v="Skillman Avenue" /><tag k="oneway" v="yes" /></way><way changeset="1" id="65" timestamp="2017-01-01T00:00:00Z" uid="1" user="osmnx" version="1"><nd ref="42917872" /><nd ref="42841778" /><tag k="highway" v="primary" /><tag k="lanes" v="3" /><tag k="maxspeed" v="nan" /><tag k="name" v="Northern Boulevard" /><tag k="oneway" v="yes" /></way><way changeset="1" id="66" timestamp="2017-01-01T00:00:00Z" uid="1" user="osmnx" version="1"><nd ref="42917872" /><nd ref="42932884" /><tag k="highway" v="primary" /><tag k="lanes" v="3" /><tag k="maxspeed" v="25 mph" /><tag k="name" v="Northern Boulevard" /><tag k="oneway" v="yes" /></way><way changeset="1" id="67" timestamp="2017-01-01T00:00:00Z" uid="1" user="osmnx" version="1"><nd ref="42917872" /><nd ref="42917869" /><tag k="highway" v="tertiary" /><tag k="lanes" v="3" /><tag k="maxspeed" v="nan" /><tag k="name" v="Steinway Street" /><tag k="oneway" v="yes" /></way><way changeset="1" id="68" timestamp="2017-01-01T00:00:00Z" uid="1" user="osmnx" version="1"><nd ref="42917872" /><nd ref="42932839" /><tag k="highway" v="secondary" /><tag k="lanes" v="3" /><tag k="maxspeed" v="nan" /><tag k="name" v="39th Street" /><tag k="oneway" v="yes" /></way><way changeset="1" id="69" timestamp="2017-01-01T00:00:00Z" uid="1" user="osmnx" version="1"><nd ref="42927013" /><nd ref="42920467" /><tag k="highway" v="tertiary" /><tag k="lanes" v="3" /><tag k="maxspeed" v="nan" /><tag k="name" v="35th Avenue" /><tag k="oneway" v="yes" /></way><way changeset="1" id="70" timestamp="2017-01-01T00:00:00Z" uid="1" user="osmnx" version="1"><nd ref="42927013" /><nd ref="1927807845" /><tag k="highway" v="tertiary" /><tag k="lanes" v="3" /><tag k="maxspeed" v="nan" /><tag k="name" v="35th Avenue" /><tag k="oneway" v="yes" /></way><way changeset="1" id="71" timestamp="2017-01-01T00:00:00Z" uid="1" user="osmnx" version="1"><nd ref="42927013" /><nd ref="42938567" /><tag k="highway" v="residential" /><tag k="lanes" v="3" /><tag k="maxspeed" v="nan" /><tag k="name" v="nan" /><tag k="oneway" v="yes" /></way><way changeset="1" id="72" timestamp="2017-01-01T00:00:00Z" uid="1" user="osmnx" version="1"><nd ref="42859942" /><nd ref="42807823" /><tag k="highway" v="tertiary" /><tag k="lanes" v="3" /><tag k="maxspeed" v="20 mph" /><tag k="name" v="39th Avenue" /><tag k="oneway" v="yes" /></way><way changeset="1" id="73" timestamp="2017-01-01T00:00:00Z" uid="1" user="osmnx" version="1"><nd ref="42859942" /><nd ref="42815107" /><tag k="highway" v="tertiary" /><tag k="lanes" v="3" /><tag k="maxspeed" v="20 mph" /><tag k="name" v="48th Street" /><tag k="oneway" v="yes" /></way><way changeset="1" id="74" timestamp="2017-01-01T00:00:00Z" uid="1" user="osmnx" version="1"><nd ref="42859942" /><nd ref="42859957" /><tag k="highway" v="tertiary" /><tag k="lanes" v="3" /><tag k="maxspeed" v="20 mph" /><tag k="name" v="48th Street" /><tag k="oneway" v="yes" /></way><way changeset="1" id="75" timestamp="2017-01-01T00:00:00Z" uid="1" user="osmnx" version="1"><nd ref="42859942" /><nd ref="42892863" /><tag k="highway" v="residential" /><tag k="lanes" v="3" /><tag k="maxspeed" v="20 mph" /><tag k="name" v="39th Avenue" /><tag k="oneway" v="yes" /></way><way changeset="1" id="76" timestamp="2017-01-01T00:00:00Z" uid="1" user="osmnx" version="1"><nd ref="277032714" /><nd ref="42888672" /><tag k="highway" v="residential" /><tag k="lanes" v="3" /><tag k="maxspeed" v="nan" /><tag k="name" v="Standard Lane" /><tag k="oneway" v="yes" /></way><way changeset="1" id="77" timestamp="2017-01-01T00:00:00Z" uid="1" user="osmnx" version="1"><nd ref="42841773" /><nd ref="42841778" /><tag k="highway" v="residential" /><tag k="lanes" v="3" /><tag k="maxspeed" v="25 mph" /><tag k="name" v="38th Street" /><tag k="oneway" v="yes" /></way><way changeset="1" id="78" timestamp="2017-01-01T00:00:00Z" uid="1" user="osmnx" version="1"><nd ref="42841773" /><nd ref="42888668" /><tag k="highway" v="tertiary" /><tag k="lanes" v="3" /><tag k="maxspeed" v="nan" /><tag k="name" v="36th Avenue" /><tag k="oneway" v="yes" /></way><way changeset="1" id="79" timestamp="2017-01-01T00:00:00Z" uid="1" user="osmnx" version="1"><nd ref="42841773" /><nd ref="42917869" /><tag k="highway" v="tertiary" /><tag k="lanes" v="3" /><tag k="maxspeed" v="nan" /><tag k="name" v="36th Avenue" /><tag k="oneway" v="yes" /></way><way changeset="1" id="80" timestamp="2017-01-01T00:00:00Z" uid="1" user="osmnx" version="1"><nd ref="42917869" /><nd ref="42917872" /><tag k="highway" v="tertiary" /><tag k="lanes" v="3" /><tag k="maxspeed" v="nan" /><tag k="name" v="Steinway Street" /><tag k="oneway" v="yes" /></way><way changeset="1" id="81" timestamp="2017-01-01T00:00:00Z" uid="1" user="osmnx" version="1"><nd ref="42917869" /><nd ref="42938567" /><tag k="highway" v="tertiary" /><tag k="lanes" v="3" /><tag k="maxspeed" v="nan" /><tag k="name" v="36th Avenue" /><tag k="oneway" v="yes" /></way><way changeset="1" id="82" timestamp="2017-01-01T00:00:00Z" uid="1" user="osmnx" version="1"><nd ref="42917869" /><nd ref="1927807845" /><tag k="highway" v="tertiary" /><tag k="lanes" v="3" /><tag k="maxspeed" v="nan" /><tag k="name" v="Steinway Street" /><tag k="oneway" v="yes" /></way><way changeset="1" id="83" timestamp="2017-01-01T00:00:00Z" uid="1" user="osmnx" version="1"><nd ref="42917869" /><nd ref="42841773" /><tag k="highway" v="tertiary" /><tag k="lanes" v="3" /><tag k="maxspeed" v="nan" /><tag k="name" v="36th Avenue" /><tag k="oneway" v="yes" /></way><way changeset="1" id="84" timestamp="2017-01-01T00:00:00Z" uid="1" user="osmnx" version="1"><nd ref="42892848" /><nd ref="42919808" /><tag k="highway" v="residential" /><tag k="lanes" v="3" /><tag k="maxspeed" v="nan" /><tag k="name" v="50th Street" /><tag k="oneway" v="yes" /></way><way changeset="1" id="85" timestamp="2017-01-01T00:00:00Z" uid="1" user="osmnx" version="1"><nd ref="42892848" /><nd ref="42815113" /><tag k="highway" v="residential" /><tag k="lanes" v="3" /><tag k="maxspeed" v="nan" /><tag k="name" v="50th Street" /><tag k="oneway" v="yes" /></way><way changeset="1" id="86" timestamp="2017-01-01T00:00:00Z" uid="1" user="osmnx" version="1"><nd ref="42892848" /><nd ref="42807823" /><tag k="highway" v="tertiary" /><tag k="lanes" v="3" /><tag k="maxspeed" v="20 mph" /><tag k="name" v="39th Avenue" /><tag k="oneway" v="yes" /></way><way changeset="1" id="87" timestamp="2017-01-01T00:00:00Z" uid="1" user="osmnx" version="1"><nd ref="42900657" /><nd ref="42900660" /><tag k="highway" v="residential" /><tag k="lanes" v="3" /><tag k="maxspeed" v="nan" /><tag k="name" v="nan" /><tag k="oneway" v="yes" /></way><way changeset="1" id="88" timestamp="2017-01-01T00:00:00Z" uid="1" user="osmnx" version="1"><nd ref="42900657" /><nd ref="42920467" /><tag k="highway" v="tertiary" /><tag k="lanes" v="3" /><tag k="maxspeed" v="nan" /><tag k="name" v="35th Avenue" /><tag k="oneway" v="yes" /></way><way changeset="1" id="89" timestamp="2017-01-01T00:00:00Z" uid="1" user="osmnx" version="1"><nd ref="42900657" /><nd ref="42923772" /><tag k="highway" v="tertiary" /><tag k="lanes" v="3" /><tag k="maxspeed" v="nan" /><tag k="name" v="nan" /><tag k="oneway" v="yes" /></way><way changeset="1" id="90" timestamp="2017-01-01T00:00:00Z" uid="1" user="osmnx" version="1"><nd ref="42841778" /><nd ref="42917872" /><tag k="highway" v="primary" /><tag k="lanes" v="3" /><tag k="maxspeed" v="nan" /><tag k="name" v="Northern Boulevard" /><tag k="oneway" v="yes" /></way><way changeset="1" id="91" timestamp="2017-01-01T00:00:00Z" uid="1" user="osmnx" version="1"><nd ref="42841778" /><nd ref="42815840" /><tag k="highway" v="primary" /><tag k="lanes" v="3" /><tag k="maxspeed" v="nan" /><tag k="name" v="Northern Boulevard" /><tag k="oneway" v="yes" /></way><way changeset="1" id="92" timestamp="2017-01-01T00:00:00Z" uid="1" user="osmnx" version="1"><nd ref="42841778" /><nd ref="42841773" /><tag k="highway" v="residential" /><tag k="lanes" v="3" /><tag k="maxspeed" v="nan" /><tag k="name" v="nan" /><tag k="oneway" v="yes" /></way><way changeset="1" id="93" timestamp="2017-01-01T00:00:00Z" uid="1" user="osmnx" version="1"><nd ref="42900660" /><nd ref="42845872" /><tag k="highway" v="primary" /><tag k="lanes" v="3" /><tag k="maxspeed" v="nan" /><tag k="name" v="Northern Boulevard" /><tag k="oneway" v="yes" /></way><way changeset="1" id="94" timestamp="2017-01-01T00:00:00Z" uid="1" user="osmnx" version="1"><nd ref="42900660" /><nd ref="42900657" /><tag k="highway" v="residential" /><tag k="lanes" v="3" /><tag k="maxspeed" v="25 mph" /><tag k="name" v="43rd Street" /><tag k="oneway" v="yes" /></way><way changeset="1" id="95" timestamp="2017-01-01T00:00:00Z" uid="1" user="osmnx" version="1"><nd ref="42900660" /><nd ref="42923772" /><tag k="highway" v="primary" /><tag k="lanes" v="3" /><tag k="maxspeed" v="nan" /><tag k="name" v="Northern Boulevard" /><tag k="oneway" v="yes" /></way><way changeset="1" id="96" timestamp="2017-01-01T00:00:00Z" uid="1" user="osmnx" version="1"><nd ref="42859957" /><nd ref="42807836" /><tag k="highway" v="residential" /><tag k="lanes" v="3" /><tag k="maxspeed" v="nan" /><tag k="name" v="nan" /><tag k="oneway" v="yes" /></way><way changeset="1" id="97" timestamp="2017-01-01T00:00:00Z" uid="1" user="osmnx" version="1"><nd ref="42859957" /><nd ref="42817805" /><tag k="highway" v="tertiary" /><tag k="lanes" v="3" /><tag k="maxspeed" v="20 mph" /><tag k="name" v="48th Street" /><tag k="oneway" v="yes" /></way><way changeset="1" id="98" timestamp="2017-01-01T00:00:00Z" uid="1" user="osmnx" version="1"><nd ref="42859957" /><nd ref="42904454" /><tag k="highway" v="residential" /><tag k="lanes" v="3" /><tag k="maxspeed" v="nan" /><tag k="name" v="Skillman Avenue" /><tag k="oneway" v="yes" /></way><way changeset="1" id="99" timestamp="2017-01-01T00:00:00Z" uid="1" user="osmnx" version="1"><nd ref="42859957" /><nd ref="42859942" /><tag k="highway" v="tertiary" /><tag k="lanes" v="3" /><tag k="maxspeed" v="20 mph" /><tag k="name" v="48th Street" /><tag k="oneway" v="yes" /></way><way changeset="1" id="100" timestamp="2017-01-01T00:00:00Z" uid="1" user="osmnx" version="1"><nd ref="42815113" /><nd ref="42892848" /><tag k="highway" v="residential" /><tag k="lanes" v="3" /><tag k="maxspeed" v="nan" /><tag k="name" v="nan" /><tag k="oneway" v="yes" /></way><way changeset="1" id="101" timestamp="2017-01-01T00:00:00Z" uid="1" user="osmnx" version="1"><nd ref="42815113" /><nd ref="42815107" /><tag k="highway" v="residential" /><tag k="lanes" v="3" /><tag k="maxspeed" v="nan" /><tag k="name" v="Barnett Avenue" /><tag k="oneway" v="yes" /></way><way changeset="1" id="102" timestamp="2017-01-01T00:00:00Z" uid="1" user="osmnx" version="1"><nd ref="42815092" /><nd ref="42815088" /><tag k="highway" v="residential" /><tag k="lanes" v="3" /><tag k="maxspeed" v="20 mph" /><tag k="name" v="Barnett Avenue" /><tag k="oneway" v="yes" /></way><way changeset="1" id="103" timestamp="2017-01-01T00:00:00Z" uid="1" user="osmnx" version="1"><nd ref="42815092" /><nd ref="2699913200" /><tag k="highway" v="residential" /><tag k="lanes" v="3" /><tag k="maxspeed" v="nan" /><tag k="name" v="nan" /><tag k="oneway" v="yes" /></way><way changeset="1" id="104" timestamp="2017-01-01T00:00:00Z" uid="1" user="osmnx" version="1"><nd ref="42815092" /><nd ref="2699913196" /><tag k="highway" v="residential" /><tag k="lanes" v="3" /><tag k="maxspeed" v="20 mph" /><tag k="name" v="39th Avenue" /><tag k="oneway" v="yes" /></way><way changeset="1" id="105" timestamp="2017-01-01T00:00:00Z" uid="1" user="osmnx" version="1"><nd ref="42904507" /><nd ref="42824187" /><tag k="highway" v="residential" /><tag k="lanes" v="3" /><tag k="maxspeed" v="nan" /><tag k="name" v="47th Street" /><tag k="oneway" v="yes" /></way><way changeset="1" id="106" timestamp="2017-01-01T00:00:00Z" uid="1" user="osmnx" version="1"><nd ref="42904507" /><nd ref="42833515" /><tag k="highway" v="primary" /><tag k="lanes" v="3" /><tag k="maxspeed" v="nan" /><tag k="name" v="Northern Boulevard" /><tag k="oneway" v="yes" /></way><way changeset="1" id="107" timestamp="2017-01-01T00:00:00Z" uid="1" user="osmnx" version="1"><nd ref="42904507" /><nd ref="3536400365" /><tag k="highway" v="primary" /><tag k="lanes" v="3" /><tag k="maxspeed" v="nan" /><tag k="name" v="Northern Boulevard" /><tag k="oneway" v="yes" /></way><way changeset="1" id="108" timestamp="2017-01-01T00:00:00Z" uid="1" user="osmnx" version="1"><nd ref="42807818" /><nd ref="3536400365" /><tag k="highway" v="primary" /><tag k="lanes" v="3" /><tag k="maxspeed" v="nan" /><tag k="name" v="Northern Boulevard" /><tag k="oneway" v="yes" /></way><way changeset="1" id="109" timestamp="2017-01-01T00:00:00Z" uid="1" user="osmnx" version="1"><nd ref="42926398" /><nd ref="42866667" /><tag k="highway" v="tertiary" /><tag k="lanes" v="3" /><tag k="maxspeed" v="nan" /><tag k="name" v="36th Avenue" /><tag k="oneway" v="yes" /></way><way changeset="1" id="110" timestamp="2017-01-01T00:00:00Z" uid="1" user="osmnx" version="1"><nd ref="42926398" /><nd ref="42888668" /><tag k="highway" v="tertiary" /><tag k="lanes" v="3" /><tag k="maxspeed" v="nan" /><tag k="name" v="36th Avenue" /><tag k="oneway" v="yes" /></way><way changeset="1" id="111" timestamp="2017-01-01T00:00:00Z" uid="1" user="osmnx" version="1"><nd ref="42892863" /><nd ref="42833548" /><tag k="highway" v="residential" /><tag k="lanes" v="3" /><tag k="maxspeed" v="20 mph" /><tag k="name" v="39th Avenue" /><tag k="oneway" v="yes" /></way><way changeset="1" id="112" timestamp="2017-01-01T00:00:00Z" uid="1" user="osmnx" version="1"><nd ref="42892863" /><nd ref="42859942" /><tag k="highway" v="residential" /><tag k="lanes" v="3" /><tag k="maxspeed" v="20 mph" /><tag k="name" v="39th Avenue" /><tag k="oneway" v="yes" /></way><way changeset="1" id="113" timestamp="2017-01-01T00:00:00Z" uid="1" user="osmnx" version="1"><nd ref="42892863" /><nd ref="42904454" /><tag k="highway" v="residential" /><tag k="lanes" v="3" /><tag k="maxspeed" v="nan" /><tag k="name" v="nan" /><tag k="oneway" v="yes" /></way><way changeset="1" id="114" timestamp="2017-01-01T00:00:00Z" uid="1" user="osmnx" version="1"><nd ref="3569858112" /><nd ref="42923772" /><tag k="highway" v="primary" /><tag k="lanes" v="3" /><tag k="maxspeed" v="nan" /><tag k="name" v="Northern Boulevard" /><tag k="oneway" v="yes" /></way><way changeset="1" id="115" timestamp="2017-01-01T00:00:00Z" uid="1" user="osmnx" version="1"><nd ref="3569858112" /><nd ref="42824174" /><tag k="highway" v="residential" /><tag k="lanes" v="3" /><tag k="maxspeed" v="nan" /><tag k="name" v="nan" /><tag k="oneway" v="yes" /></way><way changeset="1" id="116" timestamp="2017-01-01T00:00:00Z" uid="1" user="osmnx" version="1"><nd ref="3569858112" /><nd ref="42885751" /><tag k="highway" v="primary" /><tag k="lanes" v="3" /><tag k="maxspeed" v="nan" /><tag k="name" v="Northern Boulevard" /><tag k="oneway" v="yes" /></way><way changeset="1" id="117" timestamp="2017-01-01T00:00:00Z" uid="1" user="osmnx" version="1"><nd ref="42888672" /><nd ref="42815840" /><tag k="highway" v="primary" /><tag k="lanes" v="3" /><tag k="maxspeed" v="nan" /><tag k="name" v="Northern Boulevard" /><tag k="oneway" v="yes" /></way><way changeset="1" id="118" timestamp="2017-01-01T00:00:00Z" uid="1" user="osmnx" version="1"><nd ref="42888672" /><nd ref="277032714" /><tag k="highway" v="residential" /><tag k="lanes" v="3" /><tag k="maxspeed" v="nan" /><tag k="name" v="Standard Lane" /><tag k="oneway" v="yes" /></way><way changeset="1" id="119" timestamp="2017-01-01T00:00:00Z" uid="1" user="osmnx" version="1"><nd ref="42888672" /><nd ref="42815838" /><tag k="highway" v="residential" /><tag k="lanes" v="3" /><tag k="maxspeed" v="nan" /><tag k="name" v="37th Street" /><tag k="oneway" v="yes" /></way><way changeset="1" id="120" timestamp="2017-01-01T00:00:00Z" uid="1" user="osmnx" version="1"><nd ref="2699913196" /><nd ref="42885753" /><tag k="highway" v="residential" /><tag k="lanes" v="3" /><tag k="maxspeed" v="nan" /><tag k="name" v="nan" /><tag k="oneway" v="yes" /></way><way changeset="1" id="121" timestamp="2017-01-01T00:00:00Z" uid="1" user="osmnx" version="1"><nd ref="2699913196" /><nd ref="2699913202" /><tag k="highway" v="residential" /><tag k="lanes" v="3" /><tag k="maxspeed" v="20 mph" /><tag k="name" v="39th Avenue" /><tag k="oneway" v="yes" /></way><way changeset="1" id="122" timestamp="2017-01-01T00:00:00Z" uid="1" user="osmnx" version="1"><nd ref="2699913196" /><nd ref="42815092" /><tag k="highway" v="residential" /><tag k="lanes" v="3" /><tag k="maxspeed" v="20 mph" /><tag k="name" v="39th Avenue" /><tag k="oneway" v="yes" /></way><way changeset="1" id="123" timestamp="2017-01-01T00:00:00Z" uid="1" user="osmnx" version="1"><nd ref="3536400365" /><nd ref="42807818" /><tag k="highway" v="primary" /><tag k="lanes" v="3" /><tag k="maxspeed" v="nan" /><tag k="name" v="Northern Boulevard" /><tag k="oneway" v="yes" /></way><way changeset="1" id="124" timestamp="2017-01-01T00:00:00Z" uid="1" user="osmnx" version="1"><nd ref="3536400365" /><nd ref="42904507" /><tag k="highway" v="primary" /><tag k="lanes" v="3" /><tag k="maxspeed" v="nan" /><tag k="name" v="Northern Boulevard" /><tag k="oneway" v="yes" /></way><way changeset="1" id="125" timestamp="2017-01-01T00:00:00Z" uid="1" user="osmnx" version="1"><nd ref="3536400365" /><nd ref="42816214" /><tag k="highway" v="tertiary" /><tag k="lanes" v="3" /><tag k="maxspeed" v="20 mph" /><tag k="name" v="48th Street" /><tag k="oneway" v="yes" /></way><way changeset="1" id="126" timestamp="2017-01-01T00:00:00Z" uid="1" user="osmnx" version="1"><nd ref="3536400365" /><nd ref="42824187" /><tag k="highway" v="residential" /><tag k="lanes" v="3" /><tag k="maxspeed" v="nan" /><tag k="name" v="34th Avenue" /><tag k="oneway" v="yes" /></way><way changeset="1" id="127" timestamp="2017-01-01T00:00:00Z" uid="1" user="osmnx" version="1"><nd ref="42938181" /><nd ref="42920480" /><tag k="highway" v="residential" /><tag k="lanes" v="3" /><tag k="maxspeed" v="nan" /><tag k="name" v="nan" /><tag k="oneway" v="yes" /></way><way changeset="1" id="128" timestamp="2017-01-01T00:00:00Z" uid="1" user="osmnx" version="1"><nd ref="42938181" /><nd ref="42904586" /><tag k="highway" v="residential" /><tag k="lanes" v="3" /><tag k="maxspeed" v="nan" /><tag k="name" v="Skillman Avenue" /><tag k="oneway" v="yes" /></way><way changeset="1" id="129" timestamp="2017-01-01T00:00:00Z" uid="1" user="osmnx" version="1"><nd ref="42938181" /><nd ref="42817780" /><tag k="highway" v="residential" /><tag k="lanes" v="3" /><tag k="maxspeed" v="nan" /><tag k="name" v="nan" /><tag k="oneway" v="yes" /></way><way changeset="1" id="130" timestamp="2017-01-01T00:00:00Z" uid="1" user="osmnx" version="1"><nd ref="42938567" /><nd ref="42932888" /><tag k="highway" v="tertiary" /><tag k="lanes" v="3" /><tag k="maxspeed" v="nan" /><tag k="name" v="nan" /><tag k="oneway" v="yes" /></way><way changeset="1" id="131" timestamp="2017-01-01T00:00:00Z" uid="1" user="osmnx" version="1"><nd ref="42938567" /><nd ref="42932884" /><tag k="highway" v="residential" /><tag k="lanes" v="3" /><tag k="maxspeed" v="nan" /><tag k="name" v="41st Street" /><tag k="oneway" v="yes" /></way><way changeset="1" id="132" timestamp="2017-01-01T00:00:00Z" uid="1" user="osmnx" version="1"><nd ref="42938567" /><nd ref="42927013" /><tag k="highway" v="residential" /><tag k="lanes" v="3" /><tag k="maxspeed" v="nan" /><tag k="name" v="41st Street" /><tag k="oneway" v="yes" /></way><way changeset="1" id="133" timestamp="2017-01-01T00:00:00Z" uid="1" user="osmnx" version="1"><nd ref="42938567" /><nd ref="42917869" /><tag k="highway" v="tertiary" /><tag k="lanes" v="3" /><tag k="maxspeed" v="nan" /><tag k="name" v="36th Avenue" /><tag k="oneway" v="yes" /></way><way changeset="1" id="134" timestamp="2017-01-01T00:00:00Z" uid="1" user="osmnx" version="1"><nd ref="42796343" /><nd ref="42819589" /><tag k="highway" v="residential" /><tag k="lanes" v="3" /><tag k="maxspeed" v="nan" /><tag k="name" v="51st Street" /><tag k="oneway" v="yes" /></way><way changeset="1" id="135" timestamp="2017-01-01T00:00:00Z" uid="1" user="osmnx" version="1"><nd ref="42866667" /><nd ref="42926398" /><tag k="highway" v="tertiary" /><tag k="lanes" v="3" /><tag k="maxspeed" v="nan" /><tag k="name" v="36th Avenue" /><tag k="oneway" v="yes" /></way><way changeset="1" id="136" timestamp="2017-01-01T00:00:00Z" uid="1" user="osmnx" version="1"><nd ref="42817784" /><nd ref="42920480" /><tag k="highway" v="residential" /><tag k="lanes" v="3" /><tag k="maxspeed" v="nan" /><tag k="name" v="nan" /><tag k="oneway" v="yes" /></way><way changeset="1" id="137" timestamp="2017-01-01T00:00:00Z" uid="1" user="osmnx" version="1"><nd ref="42817784" /><nd ref="42817780" /><tag k="highway" v="residential" /><tag k="lanes" v="3" /><tag k="maxspeed" v="nan" /><tag k="name" v="nan" /><tag k="oneway" v="yes" /></way><way changeset="1" id="138" timestamp="2017-01-01T00:00:00Z" uid="1" user="osmnx" version="1"><nd ref="42817784" /><nd ref="42817789" /><tag k="highway" v="residential" /><tag k="lanes" v="3" /><tag k="maxspeed" v="20 mph" /><tag k="name" v="43rd Avenue" /><tag k="oneway" v="yes" /></way><way changeset="1" id="139" timestamp="2017-01-01T00:00:00Z" uid="1" user="osmnx" version="1"><nd ref="42816211" /><nd ref="42845872" /><tag k="highway" v="residential" /><tag k="lanes" v="3" /><tag k="maxspeed" v="nan" /><tag k="name" v="['43rd Street', '42nd Place']" /><tag k="oneway" v="yes" /></way><way changeset="1" id="140" timestamp="2017-01-01T00:00:00Z" uid="1" user="osmnx" version="1"><nd ref="42816211" /><nd ref="42815084" /><tag k="highway" v="residential" /><tag k="lanes" v="3" /><tag k="maxspeed" v="nan" /><tag k="name" v="43rd Street" /><tag k="oneway" v="yes" /></way><way changeset="1" id="141" timestamp="2017-01-01T00:00:00Z" uid="1" user="osmnx" version="1"><nd ref="42816211" /><nd ref="42816214" /><tag k="highway" v="residential" /><tag k="lanes" v="3" /><tag k="maxspeed" v="nan" /><tag k="name" v="37th Avenue" /><tag k="oneway" v="yes" /></way><way changeset="1" id="142" timestamp="2017-01-01T00:00:00Z" uid="1" user="osmnx" version="1"><nd ref="42815107" /><nd ref="2699913200" /><tag k="highway" v="residential" /><tag k="lanes" v="3" /><tag k="maxspeed" v="nan" /><tag k="name" v="Barnett Avenue" /><tag k="oneway" v="yes" /></way><way changeset="1" id="143" timestamp="2017-01-01T00:00:00Z" uid="1" user="osmnx" version="1"><nd ref="42815107" /><nd ref="42815113" /><tag k="highway" v="residential" /><tag k="lanes" v="3" /><tag k="maxspeed" v="nan" /><tag k="name" v="nan" /><tag k="oneway" v="yes" /></way><way changeset="1" id="144" timestamp="2017-01-01T00:00:00Z" uid="1" user="osmnx" version="1"><nd ref="42815107" /><nd ref="42859942" /><tag k="highway" v="tertiary" /><tag k="lanes" v="3" /><tag k="maxspeed" v="20 mph" /><tag k="name" v="48th Street" /><tag k="oneway" v="yes" /></way><way changeset="1" id="145" timestamp="2017-01-01T00:00:00Z" uid="1" user="osmnx" version="1"><nd ref="42815107" /><nd ref="42816214" /><tag k="highway" v="tertiary" /><tag k="lanes" v="3" /><tag k="maxspeed" v="20 mph" /><tag k="name" v="48th Street" /><tag k="oneway" v="yes" /></way><way changeset="1" id="146" timestamp="2017-01-01T00:00:00Z" uid="1" user="osmnx" version="1"><nd ref="42816214" /><nd ref="42815107" /><tag k="highway" v="tertiary" /><tag k="lanes" v="3" /><tag k="maxspeed" v="20 mph" /><tag k="name" v="48th Street" /><tag k="oneway" v="yes" /></way><way changeset="1" id="147" timestamp="2017-01-01T00:00:00Z" uid="1" user="osmnx" version="1"><nd ref="42816214" /><nd ref="3536400365" /><tag k="highway" v="tertiary" /><tag k="lanes" v="3" /><tag k="maxspeed" v="20 mph" /><tag k="name" v="48th Street" /><tag k="oneway" v="yes" /></way><way changeset="1" id="148" timestamp="2017-01-01T00:00:00Z" uid="1" user="osmnx" version="1"><nd ref="42816214" /><nd ref="42816211" /><tag k="highway" v="residential" /><tag k="lanes" v="3" /><tag k="maxspeed" v="nan" /><tag k="name" v="37th Avenue" /><tag k="oneway" v="yes" /></way><way changeset="1" id="149" timestamp="2017-01-01T00:00:00Z" uid="1" user="osmnx" version="1"><nd ref="42841815" /><nd ref="42817769" /><tag k="highway" v="residential" /><tag k="lanes" v="3" /><tag k="maxspeed" v="nan" /><tag k="name" v="38th Street" /><tag k="oneway" v="yes" /></way><way changeset="1" id="150" timestamp="2017-01-01T00:00:00Z" uid="1" user="osmnx" version="1"><nd ref="42841815" /><nd ref="42932839" /><tag k="highway" v="residential" /><tag k="lanes" v="3" /><tag k="maxspeed" v="nan" /><tag k="name" v="nan" /><tag k="oneway" v="yes" /></way><way changeset="1" id="151" timestamp="2017-01-01T00:00:00Z" uid="1" user="osmnx" version="1"><nd ref="42845872" /><nd ref="42920473" /><tag k="highway" v="primary" /><tag k="lanes" v="3" /><tag k="maxspeed" v="nan" /><tag k="name" v="Northern Boulevard" /><tag k="oneway" v="yes" /></way><way changeset="1" id="152" timestamp="2017-01-01T00:00:00Z" uid="1" user="osmnx" version="1"><nd ref="42845872" /><nd ref="42816211" /><tag k="highway" v="residential" /><tag k="lanes" v="3" /><tag k="maxspeed" v="nan" /><tag k="name" v="['43rd Street', '42nd Place']" /><tag k="oneway" v="yes" /></way><way changeset="1" id="153" timestamp="2017-01-01T00:00:00Z" uid="1" user="osmnx" version="1"><nd ref="42845872" /><nd ref="42900660" /><tag k="highway" v="primary" /><tag k="lanes" v="3" /><tag k="maxspeed" v="nan" /><tag k="name" v="Northern Boulevard" /><tag k="oneway" v="yes" /></way><way changeset="1" id="154" timestamp="2017-01-01T00:00:00Z" uid="1" user="osmnx" version="1"><nd ref="42888668" /><nd ref="42926398" /><tag k="highway" v="tertiary" /><tag k="lanes" v="3" /><tag k="maxspeed" v="nan" /><tag k="name" v="36th Avenue" /><tag k="oneway" v="yes" /></way><way changeset="1" id="155" timestamp="2017-01-01T00:00:00Z" uid="1" user="osmnx" version="1"><nd ref="42888668" /><nd ref="42841773" /><tag k="highway" v="tertiary" /><tag k="lanes" v="3" /><tag k="maxspeed" v="nan" /><tag k="name" v="36th Avenue" /><tag k="oneway" v="yes" /></way><way changeset="1" id="156" timestamp="2017-01-01T00:00:00Z" uid="1" user="osmnx" version="1"><nd ref="42888668" /><nd ref="42815838" /><tag k="highway" v="residential" /><tag k="lanes" v="3" /><tag k="maxspeed" v="nan" /><tag k="name" v="nan" /><tag k="oneway" v="yes" /></way><way changeset="1" id="157" timestamp="2017-01-01T00:00:00Z" uid="1" user="osmnx" version="1"><nd ref="42815838" /><nd ref="42888672" /><tag k="highway" v="residential" /><tag k="lanes" v="3" /><tag k="maxspeed" v="nan" /><tag k="name" v="37th Street" /><tag k="oneway" v="yes" /></way><way changeset="1" id="158" timestamp="2017-01-01T00:00:00Z" uid="1" user="osmnx" version="1"><nd ref="42815838" /><nd ref="42815840" /><tag k="highway" v="residential" /><tag k="lanes" v="3" /><tag k="maxspeed" v="nan" /><tag k="name" v="nan" /><tag k="oneway" v="yes" /></way><way changeset="1" id="159" timestamp="2017-01-01T00:00:00Z" uid="1" user="osmnx" version="1"><nd ref="42815838" /><nd ref="42888668" /><tag k="highway" v="residential" /><tag k="lanes" v="3" /><tag k="maxspeed" v="nan" /><tag k="name" v="37th Street" /><tag k="oneway" v="yes" /></way><way changeset="1" id="160" timestamp="2017-01-01T00:00:00Z" uid="1" user="osmnx" version="1"><nd ref="42815840" /><nd ref="42888672" /><tag k="highway" v="primary" /><tag k="lanes" v="3" /><tag k="maxspeed" v="nan" /><tag k="name" v="Northern Boulevard" /><tag k="oneway" v="yes" /></way><way changeset="1" id="161" timestamp="2017-01-01T00:00:00Z" uid="1" user="osmnx" version="1"><nd ref="42815840" /><nd ref="42841778" /><tag k="highway" v="primary" /><tag k="lanes" v="3" /><tag k="maxspeed" v="nan" /><tag k="name" v="Northern Boulevard" /><tag k="oneway" v="yes" /></way><way changeset="1" id="162" timestamp="2017-01-01T00:00:00Z" uid="1" user="osmnx" version="1"><nd ref="42815840" /><nd ref="42815838" /><tag k="highway" v="residential" /><tag k="lanes" v="3" /><tag k="maxspeed" v="nan" /><tag k="name" v="37th Avenue" /><tag k="oneway" v="yes" /></way><way changeset="1" id="163" timestamp="2017-01-01T00:00:00Z" uid="1" user="osmnx" version="1"><nd ref="1927807845" /><nd ref="42917869" /><tag k="highway" v="tertiary" /><tag k="lanes" v="3" /><tag k="maxspeed" v="nan" /><tag k="name" v="Steinway Street" /><tag k="oneway" v="yes" /></way><way changeset="1" id="164" timestamp="2017-01-01T00:00:00Z" uid="1" user="osmnx" version="1"><nd ref="1927807845" /><nd ref="42927013" /><tag k="highway" v="tertiary" /><tag k="lanes" v="3" /><tag k="maxspeed" v="nan" /><tag k="name" v="35th Avenue" /><tag k="oneway" v="yes" /></way><way changeset="1" id="165" timestamp="2017-01-01T00:00:00Z" uid="1" user="osmnx" version="1"><nd ref="42932839" /><nd ref="42917872" /><tag k="highway" v="secondary" /><tag k="lanes" v="3" /><tag k="maxspeed" v="nan" /><tag k="name" v="39th Street" /><tag k="oneway" v="yes" /></way><way changeset="1" id="166" timestamp="2017-01-01T00:00:00Z" uid="1" user="osmnx" version="1"><nd ref="42932839" /><nd ref="42864393" /><tag k="highway" v="residential" /><tag k="lanes" v="3" /><tag k="maxspeed" v="nan" /><tag k="name" v="nan" /><tag k="oneway" v="yes" /></way><way changeset="1" id="167" timestamp="2017-01-01T00:00:00Z" uid="1" user="osmnx" version="1"><nd ref="42932839" /><nd ref="42817771" /><tag k="highway" v="secondary" /><tag k="lanes" v="3" /><tag k="maxspeed" v="nan" /><tag k="name" v="39th Street" /><tag k="oneway" v="yes" /></way><way changeset="1" id="168" timestamp="2017-01-01T00:00:00Z" uid="1" user="osmnx" version="1"><nd ref="42932839" /><nd ref="42841815" /><tag k="highway" v="residential" /><tag k="lanes" v="3" /><tag k="maxspeed" v="nan" /><tag k="name" v="Skillman Avenue" /><tag k="oneway" v="yes" /></way><way changeset="1" id="169" timestamp="2017-01-01T00:00:00Z" uid="1" user="osmnx" version="1"><nd ref="42817769" /><nd ref="42817771" /><tag k="highway" v="residential" /><tag k="lanes" v="3" /><tag k="maxspeed" v="20 mph" /><tag k="name" v="43rd Avenue" /><tag k="oneway" v="yes" /></way><way changeset="1" id="170" timestamp="2017-01-01T00:00:00Z" uid="1" user="osmnx" version="1"><nd ref="42817769" /><nd ref="42841815" /><tag k="highway" v="residential" /><tag k="lanes" v="3" /><tag k="maxspeed" v="nan" /><tag k="name" v="nan" /><tag k="oneway" v="yes" /></way><way changeset="1" id="171" timestamp="2017-01-01T00:00:00Z" uid="1" user="osmnx" version="1"><nd ref="42817771" /><nd ref="42817769" /><tag k="highway" v="residential" /><tag k="lanes" v="3" /><tag k="maxspeed" v="nan" /><tag k="name" v="nan" /><tag k="oneway" v="yes" /></way><way changeset="1" id="172" timestamp="2017-01-01T00:00:00Z" uid="1" user="osmnx" version="1"><nd ref="42817771" /><nd ref="42817773" /><tag k="highway" v="residential" /><tag k="lanes" v="3" /><tag k="maxspeed" v="20 mph" /><tag k="name" v="43rd Avenue" /><tag k="oneway" v="yes" /></way><way changeset="1" id="173" timestamp="2017-01-01T00:00:00Z" uid="1" user="osmnx" version="1"><nd ref="42817771" /><nd ref="42932839" /><tag k="highway" v="secondary" /><tag k="lanes" v="3" /><tag k="maxspeed" v="nan" /><tag k="name" v="39th Street" /><tag k="oneway" v="yes" /></way><way changeset="1" id="174" timestamp="2017-01-01T00:00:00Z" uid="1" user="osmnx" version="1"><nd ref="42815084" /><nd ref="42815088" /><tag k="highway" v="residential" /><tag k="lanes" v="3" /><tag k="maxspeed" v="20 mph" /><tag k="name" v="Barnett Avenue" /><tag k="oneway" v="yes" /></way><way changeset="1" id="175" timestamp="2017-01-01T00:00:00Z" uid="1" user="osmnx" version="1"><nd ref="42815084" /><nd ref="42900618" /><tag k="highway" v="residential" /><tag k="lanes" v="3" /><tag k="maxspeed" v="nan" /><tag k="name" v="43rd Street" /><tag k="oneway" v="yes" /></way><way changeset="1" id="176" timestamp="2017-01-01T00:00:00Z" uid="1" user="osmnx" version="1"><nd ref="42815084" /><nd ref="42816211" /><tag k="highway" v="residential" /><tag k="lanes" v="3" /><tag k="maxspeed" v="nan" /><tag k="name" v="43rd Street" /><tag k="oneway" v="yes" /></way><way changeset="1" id="177" timestamp="2017-01-01T00:00:00Z" uid="1" user="osmnx" version="1"><nd ref="42817773" /><nd ref="42817776" /><tag k="highway" v="residential" /><tag k="lanes" v="3" /><tag k="maxspeed" v="20 mph" /><tag k="name" v="43rd Avenue" /><tag k="oneway" v="yes" /></way><way changeset="1" id="178" timestamp="2017-01-01T00:00:00Z" uid="1" user="osmnx" version="1"><nd ref="42817773" /><nd ref="42864393" /><tag k="highway" v="residential" /><tag k="lanes" v="3" /><tag k="maxspeed" v="nan" /><tag k="name" v="39th Place" /><tag k="oneway" v="yes" /></way><way changeset="1" id="179" timestamp="2017-01-01T00:00:00Z" uid="1" user="osmnx" version="1"><nd ref="42817773" /><nd ref="42817771" /><tag k="highway" v="residential" /><tag k="lanes" v="3" /><tag k="maxspeed" v="nan" /><tag k="name" v="nan" /><tag k="oneway" v="yes" /></way><way changeset="1" id="180" timestamp="2017-01-01T00:00:00Z" uid="1" user="osmnx" version="1"><nd ref="42824174" /><nd ref="3569858112" /><tag k="highway" v="residential" /><tag k="lanes" v="3" /><tag k="maxspeed" v="nan" /><tag k="name" v="44th Street" /><tag k="oneway" v="yes" /></way><way changeset="1" id="181" timestamp="2017-01-01T00:00:00Z" uid="1" user="osmnx" version="1"><nd ref="42824174" /><nd ref="42824176" /><tag k="highway" v="tertiary" /><tag k="lanes" v="3" /><tag k="maxspeed" v="nan" /><tag k="name" v="34th Avenue" /><tag k="oneway" v="yes" /></way><way changeset="1" id="182" timestamp="2017-01-01T00:00:00Z" uid="1" user="osmnx" version="1"><nd ref="42824176" /><nd ref="42824181" /><tag k="highway" v="tertiary" /><tag k="lanes" v="3" /><tag k="maxspeed" v="nan" /><tag k="name" v="34th Avenue" /><tag k="oneway" v="yes" /></way><way changeset="1" id="183" timestamp="2017-01-01T00:00:00Z" uid="1" user="osmnx" version="1"><nd ref="42824176" /><nd ref="42824174" /><tag k="highway" v="tertiary" /><tag k="lanes" v="3" /><tag k="maxspeed" v="nan" /><tag k="name" v="34th Avenue" /><tag k="oneway" v="yes" /></way><way changeset="1" id="184" timestamp="2017-01-01T00:00:00Z" uid="1" user="osmnx" version="1"><nd ref="42824176" /><nd ref="42885751" /><tag k="highway" v="residential" /><tag k="lanes" v="3" /><tag k="maxspeed" v="nan" /><tag k="name" v="nan" /><tag k="oneway" v="yes" /></way><way changeset="1" id="185" timestamp="2017-01-01T00:00:00Z" uid="1" user="osmnx" version="1"><nd ref="2699913200" /><nd ref="2699913202" /><tag k="highway" v="residential" /><tag k="lanes" v="3" /><tag k="maxspeed" v="nan" /><tag k="name" v="39th Avenue" /><tag k="oneway" v="yes" /></way><way changeset="1" id="186" timestamp="2017-01-01T00:00:00Z" uid="1" user="osmnx" version="1"><nd ref="2699913200" /><nd ref="42815107" /><tag k="highway" v="residential" /><tag k="lanes" v="3" /><tag k="maxspeed" v="nan" /><tag k="name" v="Barnett Avenue" /><tag k="oneway" v="yes" /></way><way changeset="1" id="187" timestamp="2017-01-01T00:00:00Z" uid="1" user="osmnx" version="1"><nd ref="2699913200" /><nd ref="42815092" /><tag k="highway" v="residential" /><tag k="lanes" v="3" /><tag k="maxspeed" v="nan" /><tag k="name" v="Barnett Avenue" /><tag k="oneway" v="yes" /></way><way changeset="1" id="188" timestamp="2017-01-01T00:00:00Z" uid="1" user="osmnx" version="1"><nd ref="2699913202" /><nd ref="2699913200" /><tag k="highway" v="residential" /><tag k="lanes" v="3" /><tag k="maxspeed" v="nan" /><tag k="name" v="39th Avenue" /><tag k="oneway" v="yes" /></way><way changeset="1" id="189" timestamp="2017-01-01T00:00:00Z" uid="1" user="osmnx" version="1"><nd ref="2699913202" /><nd ref="2699913196" /><tag k="highway" v="residential" /><tag k="lanes" v="3" /><tag k="maxspeed" v="20 mph" /><tag k="name" v="39th Avenue" /><tag k="oneway" v="yes" /></way><way changeset="1" id="190" timestamp="2017-01-01T00:00:00Z" uid="1" user="osmnx" version="1"><nd ref="2699913202" /><nd ref="42833548" /><tag k="highway" v="residential" /><tag k="lanes" v="3" /><tag k="maxspeed" v="20 mph" /><tag k="name" v="39th Avenue" /><tag k="oneway" v="yes" /></way><way changeset="1" id="191" timestamp="2017-01-01T00:00:00Z" uid="1" user="osmnx" version="1"><nd ref="42817780" /><nd ref="42817784" /><tag k="highway" v="residential" /><tag k="lanes" v="3" /><tag k="maxspeed" v="20 mph" /><tag k="name" v="43rd Avenue" /><tag k="oneway" v="yes" /></way><way changeset="1" id="192" timestamp="2017-01-01T00:00:00Z" uid="1" user="osmnx" version="1"><nd ref="42817780" /><nd ref="42817776" /><tag k="highway" v="residential" /><tag k="lanes" v="3" /><tag k="maxspeed" v="nan" /><tag k="name" v="nan" /><tag k="oneway" v="yes" /></way><way changeset="1" id="193" timestamp="2017-01-01T00:00:00Z" uid="1" user="osmnx" version="1"><nd ref="42817780" /><nd ref="42938181" /><tag k="highway" v="residential" /><tag k="lanes" v="3" /><tag k="maxspeed" v="nan" /><tag k="name" v="41st Street" /><tag k="oneway" v="yes" /></way><way changeset="1" id="194" timestamp="2017-01-01T00:00:00Z" uid="1" user="osmnx" version="1"><nd ref="42824181" /><nd ref="42824176" /><tag k="highway" v="tertiary" /><tag k="lanes" v="3" /><tag k="maxspeed" v="nan" /><tag k="name" v="34th Avenue" /><tag k="oneway" v="yes" /></way><way changeset="1" id="195" timestamp="2017-01-01T00:00:00Z" uid="1" user="osmnx" version="1"><nd ref="42824181" /><nd ref="42833515" /><tag k="highway" v="residential" /><tag k="lanes" v="3" /><tag k="maxspeed" v="nan" /><tag k="name" v="46th Street" /><tag k="oneway" v="yes" /></way><way changeset="1" id="196" timestamp="2017-01-01T00:00:00Z" uid="1" user="osmnx" version="1"><nd ref="42824181" /><nd ref="42824187" /><tag k="highway" v="tertiary" /><tag k="lanes" v="3" /><tag k="maxspeed" v="nan" /><tag k="name" v="34th Avenue" /><tag k="oneway" v="yes" /></way><way changeset="1" id="197" timestamp="2017-01-01T00:00:00Z" uid="1" user="osmnx" version="1"><nd ref="42885751" /><nd ref="42824176" /><tag k="highway" v="residential" /><tag k="lanes" v="3" /><tag k="maxspeed" v="nan" /><tag k="name" v="45th Street" /><tag k="oneway" v="yes" /></way><way changeset="1" id="198" timestamp="2017-01-01T00:00:00Z" uid="1" user="osmnx" version="1"><nd ref="42885751" /><nd ref="3569858112" /><tag k="highway" v="primary" /><tag k="lanes" v="3" /><tag k="maxspeed" v="nan" /><tag k="name" v="Northern Boulevard" /><tag k="oneway" v="yes" /></way><way changeset="1" id="199" timestamp="2017-01-01T00:00:00Z" uid="1" user="osmnx" version="1"><nd ref="42885751" /><nd ref="42833515" /><tag k="highway" v="primary" /><tag k="lanes" v="3" /><tag k="maxspeed" v="nan" /><tag k="name" v="Northern Boulevard" /><tag k="oneway" v="yes" /></way><way changeset="1" id="200" timestamp="2017-01-01T00:00:00Z" uid="1" user="osmnx" version="1"><nd ref="42817776" /><nd ref="42904586" /><tag k="highway" v="residential" /><tag k="lanes" v="3" /><tag k="maxspeed" v="nan" /><tag k="name" v="nan" /><tag k="oneway" v="yes" /></way><way changeset="1" id="201" timestamp="2017-01-01T00:00:00Z" uid="1" user="osmnx" version="1"><nd ref="42817776" /><nd ref="42817780" /><tag k="highway" v="residential" /><tag k="lanes" v="3" /><tag k="maxspeed" v="20 mph" /><tag k="name" v="43rd Avenue" /><tag k="oneway" v="yes" /></way><way changeset="1" id="202" timestamp="2017-01-01T00:00:00Z" uid="1" user="osmnx" version="1"><nd ref="42817776" /><nd ref="42817773" /><tag k="highway" v="residential" /><tag k="lanes" v="3" /><tag k="maxspeed" v="nan" /><tag k="name" v="nan" /><tag k="oneway" v="yes" /></way><way changeset="1" id="203" timestamp="2017-01-01T00:00:00Z" uid="1" user="osmnx" version="1"><nd ref="42885753" /><nd ref="42833561" /><tag k="highway" v="residential" /><tag k="lanes" v="3" /><tag k="maxspeed" v="nan" /><tag k="name" v="nan" /><tag k="oneway" v="yes" /></way><way changeset="1" id="204" timestamp="2017-01-01T00:00:00Z" uid="1" user="osmnx" version="1"><nd ref="42885753" /><nd ref="2699913196" /><tag k="highway" v="residential" /><tag k="lanes" v="3" /><tag k="maxspeed" v="nan" /><tag k="name" v="45th Street" /><tag k="oneway" v="yes" /></way><way changeset="1" id="205" timestamp="2017-01-01T00:00:00Z" uid="1" user="osmnx" version="1"><nd ref="42885753" /><nd ref="42817797" /><tag k="highway" v="residential" /><tag k="lanes" v="3" /><tag k="maxspeed" v="nan" /><tag k="name" v="nan" /><tag k="oneway" v="yes" /></way><way changeset="1" id="206" timestamp="2017-01-01T00:00:00Z" uid="1" user="osmnx" version="1"><nd ref="42885753" /><nd ref="42923790" /><tag k="highway" v="residential" /><tag k="lanes" v="3" /><tag k="maxspeed" v="nan" /><tag k="name" v="Skillman Avenue" /><tag k="oneway" v="yes" /></way><way changeset="1" id="207" timestamp="2017-01-01T00:00:00Z" uid="1" user="osmnx" version="1"><nd ref="42817802" /><nd ref="42817805" /><tag k="highway" v="residential" /><tag k="lanes" v="3" /><tag k="maxspeed" v="20 mph" /><tag k="name" v="43rd Avenue" /><tag k="oneway" v="yes" /></way><way changeset="1" id="208" timestamp="2017-01-01T00:00:00Z" uid="1" user="osmnx" version="1"><nd ref="42817802" /><nd ref="42904454" /><tag k="highway" v="residential" /><tag k="lanes" v="3" /><tag k="maxspeed" v="nan" /><tag k="name" v="47th Street" /><tag k="oneway" v="yes" /></way><way changeset="1" id="209" timestamp="2017-01-01T00:00:00Z" uid="1" user="osmnx" version="1"><nd ref="42817802" /><nd ref="42817799" /><tag k="highway" v="residential" /><tag k="lanes" v="3" /><tag k="maxspeed" v="nan" /><tag k="name" v="nan" /><tag k="oneway" v="yes" /></way><way changeset="1" id="210" timestamp="2017-01-01T00:00:00Z" uid="1" user="osmnx" version="1"><nd ref="42824187" /><nd ref="42904507" /><tag k="highway" v="residential" /><tag k="lanes" v="3" /><tag k="maxspeed" v="nan" /><tag k="name" v="47th Street" /><tag k="oneway" v="yes" /></way><way changeset="1" id="211" timestamp="2017-01-01T00:00:00Z" uid="1" user="osmnx" version="1"><nd ref="42824187" /><nd ref="42824181" /><tag k="highway" v="tertiary" /><tag k="lanes" v="3" /><tag k="maxspeed" v="nan" /><tag k="name" v="34th Avenue" /><tag k="oneway" v="yes" /></way><way changeset="1" id="212" timestamp="2017-01-01T00:00:00Z" uid="1" user="osmnx" version="1"><nd ref="42824187" /><nd ref="3536400365" /><tag k="highway" v="residential" /><tag k="lanes" v="3" /><tag k="maxspeed" v="nan" /><tag k="name" v="nan" /><tag k="oneway" v="yes" /></way><way changeset="1" id="213" timestamp="2017-01-01T00:00:00Z" uid="1" user="osmnx" version="1"><nd ref="42923772" /><nd ref="3569858112" /><tag k="highway" v="primary" /><tag k="lanes" v="3" /><tag k="maxspeed" v="nan" /><tag k="name" v="Northern Boulevard" /><tag k="oneway" v="yes" /></way><way changeset="1" id="214" timestamp="2017-01-01T00:00:00Z" uid="1" user="osmnx" version="1"><nd ref="42923772" /><nd ref="42900657" /><tag k="highway" v="tertiary" /><tag k="lanes" v="3" /><tag k="maxspeed" v="nan" /><tag k="name" v="35th Avenue" /><tag k="oneway" v="yes" /></way><way changeset="1" id="215" timestamp="2017-01-01T00:00:00Z" uid="1" user="osmnx" version="1"><nd ref="42923772" /><nd ref="42900660" /><tag k="highway" v="primary" /><tag k="lanes" v="3" /><tag k="maxspeed" v="nan" /><tag k="name" v="Northern Boulevard" /><tag k="oneway" v="yes" /></way><way changeset="1" id="216" timestamp="2017-01-01T00:00:00Z" uid="1" user="osmnx" version="1"><nd ref="42817789" /><nd ref="42817784" /><tag k="highway" v="residential" /><tag k="lanes" v="3" /><tag k="maxspeed" v="nan" /><tag k="name" v="nan" /><tag k="oneway" v="yes" /></way><way changeset="1" id="217" timestamp="2017-01-01T00:00:00Z" uid="1" user="osmnx" version="1"><nd ref="42817789" /><nd ref="42817794" /><tag k="highway" v="residential" /><tag k="lanes" v="3" /><tag k="maxspeed" v="20 mph" /><tag k="name" v="43rd Avenue" /><tag k="oneway" v="yes" /></way><way changeset="1" id="218" timestamp="2017-01-01T00:00:00Z" uid="1" user="osmnx" version="1"><nd ref="42817789" /><nd ref="42900618" /><tag k="highway" v="residential" /><tag k="lanes" v="3" /><tag k="maxspeed" v="nan" /><tag k="name" v="43rd Street" /><tag k="oneway" v="yes" /></way><way changeset="1" id="219" timestamp="2017-01-01T00:00:00Z" uid="1" user="osmnx" version="1"><nd ref="42815088" /><nd ref="42815084" /><tag k="highway" v="residential" /><tag k="lanes" v="3" /><tag k="maxspeed" v="20 mph" /><tag k="name" v="Barnett Avenue" /><tag k="oneway" v="yes" /></way><way changeset="1" id="220" timestamp="2017-01-01T00:00:00Z" uid="1" user="osmnx" version="1"><nd ref="42815088" /><nd ref="42815092" /><tag k="highway" v="residential" /><tag k="lanes" v="3" /><tag k="maxspeed" v="20 mph" /><tag k="name" v="Barnett Avenue" /><tag k="oneway" v="yes" /></way><way changeset="1" id="221" timestamp="2017-01-01T00:00:00Z" uid="1" user="osmnx" version="1"><nd ref="42815088" /><nd ref="42923790" /><tag k="highway" v="residential" /><tag k="lanes" v="3" /><tag k="maxspeed" v="nan" /><tag k="name" v="44th Street" /><tag k="oneway" v="yes" /></way></osm>