<osm><node changeset="1" id="42434270" lat="40.743431" lon="-73.996129" timestamp="2017-01-01T00:00:00Z" uid="1" user="osmnx" version="1"><tag k="highway" v="traffic_signals" /></node><node changeset="1" id="42444928" lat="40.7477804" lon="-74.000438" timestamp="2017-01-01T00:00:00Z" uid="1" user="osmnx" version="1"><tag k="highway" v="traffic_signals" /></node><node changeset="1" id="42437890" lat="40.744099" lon="-73.995645" timestamp="2017-01-01T00:00:00Z" uid="1" user="osmnx" version="1"><tag k="highway" v="traffic_signals" /></node><node changeset="1" id="42427371" lat="40.7410305" lon="-73.9941671" timestamp="2017-01-01T00:00:00Z" uid="1" user="osmnx" version="1"><tag k="highway" v="traffic_signals" /></node><node changeset="1" id="42444933" lat="40.7484089" lon="-73.9999781" timestamp="2017-01-01T00:00:00Z" uid="1" user="osmnx" version="1"><tag k="highway" v="traffic_signals" /></node><node changeset="1" id="42435422" lat="40.749101" lon="-73.992006" timestamp="2017-01-01T00:00:00Z" uid="1" user="osmnx" version="1"><tag k="highway" v="traffic_signals" /></node><node changeset="1" id="42427369" lat="40.739673" lon="-73.990945" timestamp="2017-01-01T00:00:00Z" uid="1" user="osmnx" version="1"><tag k="highway" v="traffic_signals" /></node><node changeset="1" id="42435596" lat="40.7397447" lon="-74.0024906" timestamp="2017-01-01T00:00:00Z" uid="1" user="osmnx" version="1"><tag k="highway" v="traffic_signals" /></node><node changeset="1" id="42435598" lat="40.7404441" lon="-74.0019879" timestamp="2017-01-01T00:00:00Z" uid="1" user="osmnx" version="1"><tag k="highway" v="traffic_signals" /></node><node changeset="1" id="42435599" lat="40.74108" lon="-74.001555" timestamp="2017-01-01T00:00:00Z" uid="1" user="osmnx" version="1"><tag k="highway" v="traffic_signals" /></node><node changeset="1" id="42438672" lat="40.7496507" lon="-73.9990694" timestamp="2017-01-01T00:00:00Z" uid="1" user="osmnx" version="1"><tag k="highway" v="traffic_signals" /></node><node changeset="1" id="42439826" lat="40.739243" lon="-73.999185" timestamp="2017-01-01T00:00:00Z" uid="1" user="osmnx" version="1"><tag k="highway" v="traffic_signals" /></node><node changeset="1" id="42435603" lat="40.7416736" lon="-74.0011226" timestamp="2017-01-01T00:00:00Z" uid="1" user="osmnx" version="1"><tag k="highway" v="traffic_signals" /></node><node changeset="1" id="42427797" lat="40.746659" lon="-73.990067" timestamp="2017-01-01T00:00:00Z" uid="1" user="osmnx" version="1"><tag k="highway" v="traffic_signals" /></node><node changeset="1" id="42439830" lat="40.739881" lon="-73.998713" timestamp="2017-01-01T00:00:00Z" uid="1" user="osmnx" version="1"><tag k="highway" v="traffic_signals" /></node><node changeset="1" id="42443671" lat="40.7402492" lon="-73.9905314" timestamp="2017-01-01T00:00:00Z" uid="1" user="osmnx" version="1"><tag k="highway" v="traffic_signals" /></node><node changeset="1" id="42427805" lat="40.7478553" lon="-73.9929106" timestamp="2017-01-01T00:00:00Z" uid="1" user="osmnx" version="1"><tag k="highway" v="traffic_signals" /></node><node changeset="1" id="42435610" lat="40.7428467" lon="-74.0002679" timestamp="2017-01-01T00:00:00Z" uid="1" user="osmnx" version="1"><tag k="highway" v="traffic_signals" /></node><node changeset="1" id="42439836" lat="40.742811" lon="-73.99658" timestamp="2017-01-01T00:00:00Z" uid="1" user="osmnx" version="1"><tag k="highway" v="traffic_signals" /></node><node changeset="1" id="42443674" lat="40.7452231" lon="-74.002304" timestamp="2017-01-01T00:00:00Z" uid="1" user="osmnx" version="1"><tag k="highway" v="traffic_signals" /></node><node changeset="1" id="42427423" lat="40.7435682" lon="-73.9923179" timestamp="2017-01-01T00:00:00Z" uid="1" user="osmnx" version="1"><tag k="highway" v="traffic_signals" /></node><node changeset="1" id="42439840" lat="40.745383" lon="-73.994709" timestamp="2017-01-01T00:00:00Z" uid="1" user="osmnx" version="1"><tag k="highway" v="traffic_signals" /></node><node changeset="1" id="42439842" lat="40.7460045" lon="-73.9942616" timestamp="2017-01-01T00:00:00Z" uid="1" user="osmnx" version="1"><tag k="highway" v="traffic_signals" /></node><node changeset="1" id="42427427" lat="40.7459612" lon="-73.998" timestamp="2017-01-01T00:00:00Z" uid="1" user="osmnx" version="1"><tag k="highway" v="traffic_signals" /></node><node changeset="1" id="42427812" lat="40.7490521" lon="-73.9957492" timestamp="2017-01-01T00:00:00Z" uid="1" user="osmnx" version="1"><tag k="highway" v="traffic_signals" /></node><node changeset="1" id="5849918502" lat="40.74401" lon="-73.9994252" timestamp="2017-01-01T00:00:00Z" uid="1" user="osmnx" version="1"><tag k="highway" v="traffic_signals" /></node><node changeset="1" id="42435624" lat="40.7452932" lon="-73.9984812" timestamp="2017-01-01T00:00:00Z" uid="1" user="osmnx" version="1"><tag k="highway" v="traffic_signals" /></node><node changeset="1" id="42428201" lat="40.7413644" lon="-73.9891371" timestamp="2017-01-01T00:00:00Z" uid="1" user="osmnx" version="1"><tag k="highway" v="traffic_signals" /></node><node changeset="1" id="42435629" lat="40.74658" lon="-73.9975495" timestamp="2017-01-01T00:00:00Z" uid="1" user="osmnx" version="1"><tag k="highway" v="traffic_signals" /></node><node changeset="1" id="42428206" lat="40.7422202" lon="-73.9891049" timestamp="2017-01-01T00:00:00Z" uid="1" user="osmnx" version="1"><tag k="highway" v="traffic_signals" /></node><node changeset="1" id="42429661" lat="40.741056" lon="-73.997862" timestamp="2017-01-01T00:00:00Z" uid="1" user="osmnx" version="1"><tag k="highway" v="traffic_signals" /></node><node changeset="1" id="42435632" lat="40.7471981" lon="-73.9970994" timestamp="2017-01-01T00:00:00Z" uid="1" user="osmnx" version="1"><tag k="highway" v="traffic_signals" /></node><node changeset="1" id="42435633" lat="40.7484275" lon="-73.996204" timestamp="2017-01-01T00:00:00Z" uid="1" user="osmnx" version="1"><tag k="highway" v="traffic_signals" /></node><node changeset="1" id="42430259" lat="40.739272" lon="-73.995446" timestamp="2017-01-01T00:00:00Z" uid="1" user="osmnx" version="1"><tag k="highway" v="traffic_signals" /></node><node changeset="1" id="42428212" lat="40.7430463" lon="-73.9891667" timestamp="2017-01-01T00:00:00Z" uid="1" user="osmnx" version="1"><tag k="highway" v="traffic_signals" /></node><node changeset="1" id="358447541" lat="40.7488385" lon="-74.0009811" timestamp="2017-01-01T00:00:00Z" uid="1" user="osmnx" version="1"><tag k="highway" v="nan" /></node><node changeset="1" id="42439834" lat="40.741642" lon="-73.997434" timestamp="2017-01-01T00:00:00Z" uid="1" user="osmnx" version="1"><tag k="highway" v="traffic_signals" /></node><node changeset="1" id="42430263" lat="40.740442" lon="-73.994593" timestamp="2017-01-01T00:00:00Z" uid="1" user="osmnx" version="1"><tag k="highway" v="traffic_signals" /></node><node changeset="1" id="42428216" lat="40.7438037" lon="-73.9890293" timestamp="2017-01-01T00:00:00Z" uid="1" user="osmnx" version="1"><tag k="highway" v="traffic_signals" /></node><node changeset="1" id="42430265" lat="40.7416174" lon="-73.9937398" timestamp="2017-01-01T00:00:00Z" uid="1" user="osmnx" version="1"><tag k="highway" v="traffic_signals" /></node><node changeset="1" id="449581627" lat="40.7423958" lon="-73.9889599" timestamp="2017-01-01T00:00:00Z" uid="1" user="osmnx" version="1"><tag k="highway" v="nan" /></node><node changeset="1" id="42428220" lat="40.744533" lon="-73.988869" timestamp="2017-01-01T00:00:00Z" uid="1" user="osmnx" version="1"><tag k="highway" v="traffic_signals" /></node><node changeset="1" id="42430269" lat="40.7422328" lon="-73.9932916" timestamp="2017-01-01T00:00:00Z" uid="1" user="osmnx" version="1"><tag k="highway" v="traffic_signals" /></node><node changeset="1" id="42430271" lat="40.742901" lon="-73.992805" timestamp="2017-01-01T00:00:00Z" uid="1" user="osmnx" version="1"><tag k="highway" v="traffic_signals" /></node><node changeset="1" id="42428192" lat="40.7398521" lon="-73.989584" timestamp="2017-01-01T00:00:00Z" uid="1" user="osmnx" version="1"><tag k="highway" v="traffic_signals" /></node><node changeset="1" id="42430274" lat="40.744186" lon="-73.991871" timestamp="2017-01-01T00:00:00Z" uid="1" user="osmnx" version="1"><tag k="highway" v="traffic_signals" /></node><node changeset="1" id="42430277" lat="40.7448072" lon="-73.9914152" timestamp="2017-01-01T00:00:00Z" uid="1" user="osmnx" version="1"><tag k="highway" v="traffic_signals" /></node><node changeset="1" id="42430279" lat="40.745421" lon="-73.990968" timestamp="2017-01-01T00:00:00Z" uid="1" user="osmnx" version="1"><tag k="highway" v="traffic_signals" /></node><node changeset="1" id="42430282" lat="40.746038" lon="-73.990518" timestamp="2017-01-01T00:00:00Z" uid="1" user="osmnx" version="1"><tag k="highway" v="traffic_signals" /></node><node changeset="1" id="42427426" lat="40.744765" lon="-73.9951595" timestamp="2017-01-01T00:00:00Z" uid="1" user="osmnx" version="1"><tag k="highway" v="traffic_signals" /></node><node changeset="1" id="42430288" lat="40.747277" lon="-73.989617" timestamp="2017-01-01T00:00:00Z" uid="1" user="osmnx" version="1"><tag k="highway" v="traffic_signals" /></node><node changeset="1" id="42430292" lat="40.7478958" lon="-73.9891568" timestamp="2017-01-01T00:00:00Z" uid="1" user="osmnx" version="1"><tag k="highway" v="traffic_signals" /></node><node changeset="1" id="42427477" lat="40.7471747" lon="-74.0008813" timestamp="2017-01-01T00:00:00Z" uid="1" user="osmnx" version="1"><tag k="highway" v="traffic_signals" /></node><node changeset="1" id="42432214" lat="40.739375" lon="-74.0027775" timestamp="2017-01-01T00:00:00Z" uid="1" user="osmnx" version="1"><tag k="highway" v="traffic_signals" /></node><node changeset="1" id="42429659" lat="40.73986" lon="-73.995018" timestamp="2017-01-01T00:00:00Z" uid="1" user="osmnx" version="1"><tag k="highway" v="traffic_signals" /></node><node changeset="1" id="42434268" lat="40.74088" lon="-73.99007" timestamp="2017-01-01T00:00:00Z" uid="1" user="osmnx" version="1"><tag k="highway" v="traffic_signals" /></node><node changeset="1" id="4205565533" lat="40.7449235" lon="-73.9987549" timestamp="2017-01-01T00:00:00Z" uid="1" user="osmnx" version="1"><tag k="highway" v="nan" /></node><node changeset="1" id="42429662" lat="40.7422581" lon="-74.0006951" timestamp="2017-01-01T00:00:00Z" uid="1" user="osmnx" version="1"><tag k="highway" v="traffic_signals" /></node><node changeset="1" id="42434271" lat="40.74463" lon="-73.9989693" timestamp="2017-01-01T00:00:00Z" uid="1" user="osmnx" version="1"><tag k="highway" v="traffic_signals" /></node><node changeset="1" id="42439440" lat="40.749706" lon="-73.991563" timestamp="2017-01-01T00:00:00Z" uid="1" user="osmnx" version="1"><tag k="highway" v="traffic_signals" /></node><node changeset="1" id="42428198" lat="40.7405826" lon="-73.9893518" timestamp="2017-01-01T00:00:00Z" uid="1" user="osmnx" version="1"><tag k="highway" v="traffic_signals" /></node><node changeset="1" id="42434279" lat="40.7458555" lon="-74.0018592" timestamp="2017-01-01T00:00:00Z" uid="1" user="osmnx" version="1"><tag k="highway" v="traffic_signals" /></node><node changeset="1" id="4443775464" lat="40.7496742" lon="-73.9952961" timestamp="2017-01-01T00:00:00Z" uid="1" user="osmnx" version="1"><tag k="highway" v="traffic_signals" /></node><node changeset="1" id="42435420" lat="40.748469" lon="-73.992463" timestamp="2017-01-01T00:00:00Z" uid="1" user="osmnx" version="1"><tag k="highway" v="traffic_signals" /></node><node changeset="1" id="42439275" lat="40.74047" lon="-73.998287" timestamp="2017-01-01T00:00:00Z" uid="1" user="osmnx" version="1"><tag k="highway" v="traffic_signals" /></node><node changeset="1" id="42427374" lat="40.742228" lon="-73.997007" timestamp="2017-01-01T00:00:00Z" uid="1" user="osmnx" version="1"><tag k="highway" v="traffic_signals" /></node><node changeset="1" id="42427386" lat="40.7446399" lon="-74.0027323" timestamp="2017-01-01T00:00:00Z" uid="1" user="osmnx" version="1"><tag k="highway" v="traffic_signals" /></node><node changeset="1" id="42438547" lat="40.7472363" lon="-73.9933621" timestamp="2017-01-01T00:00:00Z" uid="1" user="osmnx" version="1"><tag k="highway" v="traffic_signals" /></node><node changeset="1" id="42427381" lat="40.7434266" lon="-73.9998517" timestamp="2017-01-01T00:00:00Z" uid="1" user="osmnx" version="1"><tag k="highway" v="traffic_signals" /></node><node changeset="1" id="42434807" lat="40.746618" lon="-73.993813" timestamp="2017-01-01T00:00:00Z" uid="1" user="osmnx" version="1"><tag k="highway" v="traffic_signals" /></node><node changeset="1" id="42437881" lat="40.7415497" lon="-73.9895958" timestamp="2017-01-01T00:00:00Z" uid="1" user="osmnx" version="1"><tag k="highway" v="traffic_signals" /></node><node changeset="1" id="42434810" lat="40.7478218" lon="-73.9966452" timestamp="2017-01-01T00:00:00Z" uid="1" user="osmnx" version="1"><tag k="highway" v="traffic_signals" /></node><node changeset="1" id="42428223" lat="40.745286" lon="-73.988729" timestamp="2017-01-01T00:00:00Z" uid="1" user="osmnx" version="1"><tag k="highway" v="traffic_signals" /></node><node changeset="1" id="42445310" lat="40.74959" lon="-74.0027864" timestamp="2017-01-01T00:00:00Z" uid="1" user="osmnx" version="1"><tag k="highway" v="traffic_signals" /></node><node changeset="1" id="42437909" lat="40.7465084" lon="-74.0013688" timestamp="2017-01-01T00:00:00Z" uid="1" user="osmnx" version="1"><tag k="highway" v="traffic_signals" /></node><way changeset="1" id="0" timestamp="2017-01-01T00:00:00Z" uid="1" user="osmnx" version="1"><nd ref="42434270" /><nd ref="42437890" /><tag k="highway" v="secondary" /><tag k="lanes" v="3" /><tag k="maxspeed" v="nan" /><tag k="name" v="nan" /><tag k="oneway" v="yes" /></way><way changeset="1" id="1" timestamp="2017-01-01T00:00:00Z" uid="1" user="osmnx" version="1"><nd ref="42434270" /><nd ref="42439836" /><tag k="highway" v="secondary" /><tag k="lanes" v="3" /><tag k="maxspeed" v="25 mph" /><tag k="name" v="7th Avenue" /><tag k="oneway" v="yes" /></way><way changeset="1" id="2" timestamp="2017-01-01T00:00:00Z" uid="1" user="osmnx" version="1"><nd ref="42434270" /><nd ref="42430269" /><tag k="highway" v="residential" /><tag k="lanes" v="3" /><tag k="maxspeed" v="25 mph" /><tag k="name" v="West 22nd Street" /><tag k="oneway" v="yes" /></way><way changeset="1" id="3" timestamp="2017-01-01T00:00:00Z" uid="1" user="osmnx" version="1"><nd ref="42434270" /><nd ref="42434271" /><tag k="highway" v="residential" /><tag k="lanes" v="3" /><tag k="maxspeed" v="nan" /><tag k="name" v="nan" /><tag k="oneway" v="yes" /></way><way changeset="1" id="4" timestamp="2017-01-01T00:00:00Z" uid="1" user="osmnx" version="1"><nd ref="42444928" /><nd ref="42435629" /><tag k="highway" v="residential" /><tag k="lanes" v="3" /><tag k="maxspeed" v="nan" /><tag k="name" v="nan" /><tag k="oneway" v="yes" /></way><way changeset="1" id="5" timestamp="2017-01-01T00:00:00Z" uid="1" user="osmnx" version="1"><nd ref="42444928" /><nd ref="42444933" /><tag k="highway" v="primary" /><tag k="lanes" v="3" /><tag k="maxspeed" v="nan" /><tag k="name" v="nan" /><tag k="oneway" v="yes" /></way><way changeset="1" id="6" timestamp="2017-01-01T00:00:00Z" uid="1" user="osmnx" version="1"><nd ref="42444928" /><nd ref="42427477" /><tag k="highway" v="primary" /><tag k="lanes" v="3" /><tag k="maxspeed" v="25 mph" /><tag k="name" v="9th Avenue" /><tag k="oneway" v="yes" /></way><way changeset="1" id="7" timestamp="2017-01-01T00:00:00Z" uid="1" user="osmnx" version="1"><nd ref="42437890" /><nd ref="42435624" /><tag k="highway" v="secondary" /><tag k="lanes" v="3" /><tag k="maxspeed" v="25 mph" /><tag k="name" v="West 23rd Street" /><tag k="oneway" v="yes" /></way><way changeset="1" id="8" timestamp="2017-01-01T00:00:00Z" uid="1" user="osmnx" version="1"><nd ref="42437890" /><nd ref="42427426" /><tag k="highway" v="secondary" /><tag k="lanes" v="3" /><tag k="maxspeed" v="nan" /><tag k="name" v="nan" /><tag k="oneway" v="yes" /></way><way changeset="1" id="9" timestamp="2017-01-01T00:00:00Z" uid="1" user="osmnx" version="1"><nd ref="42437890" /><nd ref="42434270" /><tag k="highway" v="secondary" /><tag k="lanes" v="3" /><tag k="maxspeed" v="25 mph" /><tag k="name" v="7th Avenue" /><tag k="oneway" v="yes" /></way><way changeset="1" id="10" timestamp="2017-01-01T00:00:00Z" uid="1" user="osmnx" version="1"><nd ref="42437890" /><nd ref="42430271" /><tag k="highway" v="secondary" /><tag k="lanes" v="3" /><tag k="maxspeed" v="25 mph" /><tag k="name" v="West 23rd Street" /><tag k="oneway" v="yes" /></way><way changeset="1" id="11" timestamp="2017-01-01T00:00:00Z" uid="1" user="osmnx" version="1"><nd ref="42427371" /><nd ref="42427369" /><tag k="highway" v="residential" /><tag k="lanes" v="3" /><tag k="maxspeed" v="25 mph" /><tag k="name" v="West 20th Street" /><tag k="oneway" v="yes" /></way><way changeset="1" id="12" timestamp="2017-01-01T00:00:00Z" uid="1" user="osmnx" version="1"><nd ref="42427371" /><nd ref="42430265" /><tag k="highway" v="secondary" /><tag k="lanes" v="3" /><tag k="maxspeed" v="25 mph" /><tag k="name" v="6th Avenue" /><tag k="oneway" v="yes" /></way><way changeset="1" id="13" timestamp="2017-01-01T00:00:00Z" uid="1" user="osmnx" version="1"><nd ref="42427371" /><nd ref="42427374" /><tag k="highway" v="residential" /><tag k="lanes" v="3" /><tag k="maxspeed" v="nan" /><tag k="name" v="nan" /><tag k="oneway" v="yes" /></way><way changeset="1" id="14" timestamp="2017-01-01T00:00:00Z" uid="1" user="osmnx" version="1"><nd ref="42427371" /><nd ref="42430263" /><tag k="highway" v="secondary" /><tag k="lanes" v="3" /><tag k="maxspeed" v="nan" /><tag k="name" v="nan" /><tag k="oneway" v="yes" /></way><way changeset="1" id="15" timestamp="2017-01-01T00:00:00Z" uid="1" user="osmnx" version="1"><nd ref="42444933" /><nd ref="42444928" /><tag k="highway" v="primary" /><tag k="lanes" v="3" /><tag k="maxspeed" v="25 mph" /><tag k="name" v="9th Avenue" /><tag k="oneway" v="yes" /></way><way changeset="1" id="16" timestamp="2017-01-01T00:00:00Z" uid="1" user="osmnx" version="1"><nd ref="42444933" /><nd ref="42435632" /><tag k="highway" v="residential" /><tag k="lanes" v="3" /><tag k="maxspeed" v="25 mph" /><tag k="name" v="West 26th Street" /><tag k="oneway" v="yes" /></way><way changeset="1" id="17" timestamp="2017-01-01T00:00:00Z" uid="1" user="osmnx" version="1"><nd ref="42444933" /><nd ref="358447541" /><tag k="highway" v="residential" /><tag k="lanes" v="3" /><tag k="maxspeed" v="nan" /><tag k="name" v="nan" /><tag k="oneway" v="yes" /></way><way changeset="1" id="18" timestamp="2017-01-01T00:00:00Z" uid="1" user="osmnx" version="1"><nd ref="42444933" /><nd ref="42438672" /><tag k="highway" v="primary" /><tag k="lanes" v="3" /><tag k="maxspeed" v="nan" /><tag k="name" v="nan" /><tag k="oneway" v="yes" /></way><way changeset="1" id="19" timestamp="2017-01-01T00:00:00Z" uid="1" user="osmnx" version="1"><nd ref="42435422" /><nd ref="42439440" /><tag k="highway" v="secondary" /><tag k="lanes" v="3" /><tag k="maxspeed" v="nan" /><tag k="name" v="nan" /><tag k="oneway" v="yes" /></way><way changeset="1" id="20" timestamp="2017-01-01T00:00:00Z" uid="1" user="osmnx" version="1"><nd ref="42435422" /><nd ref="42435420" /><tag k="highway" v="secondary" /><tag k="lanes" v="3" /><tag k="maxspeed" v="25 mph" /><tag k="name" v="7th Avenue" /><tag k="oneway" v="yes" /></way><way changeset="1" id="21" timestamp="2017-01-01T00:00:00Z" uid="1" user="osmnx" version="1"><nd ref="42435422" /><nd ref="42430292" /><tag k="highway" v="tertiary" /><tag k="lanes" v="3" /><tag k="maxspeed" v="nan" /><tag k="name" v="nan" /><tag k="oneway" v="yes" /></way><way changeset="1" id="22" timestamp="2017-01-01T00:00:00Z" uid="1" user="osmnx" version="1"><nd ref="42427369" /><nd ref="42427371" /><tag k="highway" v="residential" /><tag k="lanes" v="3" /><tag k="maxspeed" v="nan" /><tag k="name" v="nan" /><tag k="oneway" v="yes" /></way><way changeset="1" id="23" timestamp="2017-01-01T00:00:00Z" uid="1" user="osmnx" version="1"><nd ref="42427369" /><nd ref="42443671" /><tag k="highway" v="secondary" /><tag k="lanes" v="3" /><tag k="maxspeed" v="nan" /><tag k="name" v="nan" /><tag k="oneway" v="yes" /></way><way changeset="1" id="24" timestamp="2017-01-01T00:00:00Z" uid="1" user="osmnx" version="1"><nd ref="42435596" /><nd ref="42435598" /><tag k="highway" v="secondary" /><tag k="lanes" v="3" /><tag k="maxspeed" v="25 mph" /><tag k="name" v="8th Avenue" /><tag k="oneway" v="yes" /></way><way changeset="1" id="25" timestamp="2017-01-01T00:00:00Z" uid="1" user="osmnx" version="1"><nd ref="42435596" /><nd ref="42432214" /><tag k="highway" v="secondary" /><tag k="lanes" v="3" /><tag k="maxspeed" v="nan" /><tag k="name" v="nan" /><tag k="oneway" v="yes" /></way><way changeset="1" id="26" timestamp="2017-01-01T00:00:00Z" uid="1" user="osmnx" version="1"><nd ref="42435598" /><nd ref="42439826" /><tag k="highway" v="residential" /><tag k="lanes" v="3" /><tag k="maxspeed" v="nan" /><tag k="name" v="nan" /><tag k="oneway" v="yes" /></way><way changeset="1" id="27" timestamp="2017-01-01T00:00:00Z" uid="1" user="osmnx" version="1"><nd ref="42435598" /><nd ref="42435596" /><tag k="highway" v="secondary" /><tag k="lanes" v="3" /><tag k="maxspeed" v="nan" /><tag k="name" v="nan" /><tag k="oneway" v="yes" /></way><way changeset="1" id="28" timestamp="2017-01-01T00:00:00Z" uid="1" user="osmnx" version="1"><nd ref="42435598" /><nd ref="42435599" /><tag k="highway" v="secondary" /><tag k="lanes" v="3" /><tag k="maxspeed" v="25 mph" /><tag k="name" v="8th Avenue" /><tag k="oneway" v="yes" /></way><way changeset="1" id="29" timestamp="2017-01-01T00:00:00Z" uid="1" user="osmnx" version="1"><nd ref="42435599" /><nd ref="42435603" /><tag k="highway" v="secondary" /><tag k="lanes" v="3" /><tag k="maxspeed" v="25 mph" /><tag k="name" v="8th Avenue" /><tag k="oneway" v="yes" /></way><way changeset="1" id="30" timestamp="2017-01-01T00:00:00Z" uid="1" user="osmnx" version="1"><nd ref="42435599" /><nd ref="42439830" /><tag k="highway" v="residential" /><tag k="lanes" v="3" /><tag k="maxspeed" v="25 mph" /><tag k="name" v="West 16th Street" /><tag k="oneway" v="yes" /></way><way changeset="1" id="31" timestamp="2017-01-01T00:00:00Z" uid="1" user="osmnx" version="1"><nd ref="42435599" /><nd ref="42435598" /><tag k="highway" v="secondary" /><tag k="lanes" v="3" /><tag k="maxspeed" v="nan" /><tag k="name" v="nan" /><tag k="oneway" v="yes" /></way><way changeset="1" id="32" timestamp="2017-01-01T00:00:00Z" uid="1" user="osmnx" version="1"><nd ref="42438672" /><nd ref="42435633" /><tag k="highway" v="residential" /><tag k="lanes" v="3" /><tag k="maxspeed" v="25 mph" /><tag k="name" v="West 28th Street" /><tag k="oneway" v="yes" /></way><way changeset="1" id="33" timestamp="2017-01-01T00:00:00Z" uid="1" user="osmnx" version="1"><nd ref="42438672" /><nd ref="42444933" /><tag k="highway" v="primary" /><tag k="lanes" v="3" /><tag k="maxspeed" v="25 mph" /><tag k="name" v="9th Avenue" /><tag k="oneway" v="yes" /></way><way changeset="1" id="34" timestamp="2017-01-01T00:00:00Z" uid="1" user="osmnx" version="1"><nd ref="42439826" /><nd ref="42435598" /><tag k="highway" v="residential" /><tag k="lanes" v="3" /><tag k="maxspeed" v="25 mph" /><tag k="name" v="West 15th Street" /><tag k="oneway" v="yes" /></way><way changeset="1" id="35" timestamp="2017-01-01T00:00:00Z" uid="1" user="osmnx" version="1"><nd ref="42439826" /><nd ref="42439830" /><tag k="highway" v="secondary" /><tag k="lanes" v="3" /><tag k="maxspeed" v="nan" /><tag k="name" v="nan" /><tag k="oneway" v="yes" /></way><way changeset="1" id="36" timestamp="2017-01-01T00:00:00Z" uid="1" user="osmnx" version="1"><nd ref="42435603" /><nd ref="42439275" /><tag k="highway" v="residential" /><tag k="lanes" v="3" /><tag k="maxspeed" v="nan" /><tag k="name" v="nan" /><tag k="oneway" v="yes" /></way><way changeset="1" id="37" timestamp="2017-01-01T00:00:00Z" uid="1" user="osmnx" version="1"><nd ref="42435603" /><nd ref="42429662" /><tag k="highway" v="secondary" /><tag k="lanes" v="3" /><tag k="maxspeed" v="25 mph" /><tag k="name" v="8th Avenue" /><tag k="oneway" v="yes" /></way><way changeset="1" id="38" timestamp="2017-01-01T00:00:00Z" uid="1" user="osmnx" version="1"><nd ref="42435603" /><nd ref="42435599" /><tag k="highway" v="secondary" /><tag k="lanes" v="3" /><tag k="maxspeed" v="nan" /><tag k="name" v="nan" /><tag k="oneway" v="yes" /></way><way changeset="1" id="39" timestamp="2017-01-01T00:00:00Z" uid="1" user="osmnx" version="1"><nd ref="42427797" /><nd ref="42430288" /><tag k="highway" v="secondary" /><tag k="lanes" v="3" /><tag k="maxspeed" v="25 mph" /><tag k="name" v="6th Avenue" /><tag k="oneway" v="yes" /></way><way changeset="1" id="40" timestamp="2017-01-01T00:00:00Z" uid="1" user="osmnx" version="1"><nd ref="42427797" /><nd ref="42430282" /><tag k="highway" v="secondary" /><tag k="lanes" v="3" /><tag k="maxspeed" v="nan" /><tag k="name" v="nan" /><tag k="oneway" v="yes" /></way><way changeset="1" id="41" timestamp="2017-01-01T00:00:00Z" uid="1" user="osmnx" version="1"><nd ref="42427797" /><nd ref="42427805" /><tag k="highway" v="residential" /><tag k="lanes" v="3" /><tag k="maxspeed" v="25 mph" /><tag k="name" v="West 29th Street" /><tag k="oneway" v="yes" /></way><way changeset="1" id="42" timestamp="2017-01-01T00:00:00Z" uid="1" user="osmnx" version="1"><nd ref="42439830" /><nd ref="42439826" /><tag k="highway" v="secondary" /><tag k="lanes" v="3" /><tag k="maxspeed" v="25 mph" /><tag k="name" v="7th Avenue" /><tag k="oneway" v="yes" /></way><way changeset="1" id="43" timestamp="2017-01-01T00:00:00Z" uid="1" user="osmnx" version="1"><nd ref="42439830" /><nd ref="42439275" /><tag k="highway" v="secondary" /><tag k="lanes" v="3" /><tag k="maxspeed" v="nan" /><tag k="name" v="nan" /><tag k="oneway" v="yes" /></way><way changeset="1" id="44" timestamp="2017-01-01T00:00:00Z" uid="1" user="osmnx" version="1"><nd ref="42439830" /><nd ref="42435599" /><tag k="highway" v="residential" /><tag k="lanes" v="3" /><tag k="maxspeed" v="nan" /><tag k="name" v="nan" /><tag k="oneway" v="yes" /></way><way changeset="1" id="45" timestamp="2017-01-01T00:00:00Z" uid="1" user="osmnx" version="1"><nd ref="42443671" /><nd ref="42428192" /><tag k="highway" v="residential" /><tag k="lanes" v="3" /><tag k="maxspeed" v="nan" /><tag k="name" v="nan" /><tag k="oneway" v="yes" /></way><way changeset="1" id="46" timestamp="2017-01-01T00:00:00Z" uid="1" user="osmnx" version="1"><nd ref="42443671" /><nd ref="42430265" /><tag k="highway" v="residential" /><tag k="lanes" v="3" /><tag k="maxspeed" v="25 mph" /><tag k="name" v="West 21st Street" /><tag k="oneway" v="yes" /></way><way changeset="1" id="47" timestamp="2017-01-01T00:00:00Z" uid="1" user="osmnx" version="1"><nd ref="42443671" /><nd ref="42434268" /><tag k="highway" v="secondary" /><tag k="lanes" v="3" /><tag k="maxspeed" v="nan" /><tag k="name" v="nan" /><tag k="oneway" v="yes" /></way><way changeset="1" id="48" timestamp="2017-01-01T00:00:00Z" uid="1" user="osmnx" version="1"><nd ref="42443671" /><nd ref="42427369" /><tag k="highway" v="secondary" /><tag k="lanes" v="3" /><tag k="maxspeed" v="25 mph" /><tag k="name" v="5th Avenue" /><tag k="oneway" v="yes" /></way><way changeset="1" id="49" timestamp="2017-01-01T00:00:00Z" uid="1" user="osmnx" version="1"><nd ref="42427805" /><nd ref="42427812" /><tag k="highway" v="residential" /><tag k="lanes" v="3" /><tag k="maxspeed" v="25 mph" /><tag k="name" v="West 29th Street" /><tag k="oneway" v="yes" /></way><way changeset="1" id="50" timestamp="2017-01-01T00:00:00Z" uid="1" user="osmnx" version="1"><nd ref="42427805" /><nd ref="42438547" /><tag k="highway" v="secondary" /><tag k="lanes" v="3" /><tag k="maxspeed" v="25 mph" /><tag k="name" v="7th Avenue" /><tag k="oneway" v="yes" /></way><way changeset="1" id="51" timestamp="2017-01-01T00:00:00Z" uid="1" user="osmnx" version="1"><nd ref="42427805" /><nd ref="42435420" /><tag k="highway" v="secondary" /><tag k="lanes" v="3" /><tag k="maxspeed" v="nan" /><tag k="name" v="nan" /><tag k="oneway" v="yes" /></way><way changeset="1" id="52" timestamp="2017-01-01T00:00:00Z" uid="1" user="osmnx" version="1"><nd ref="42427805" /><nd ref="42427797" /><tag k="highway" v="residential" /><tag k="lanes" v="3" /><tag k="maxspeed" v="nan" /><tag k="name" v="nan" /><tag k="oneway" v="yes" /></way><way changeset="1" id="53" timestamp="2017-01-01T00:00:00Z" uid="1" user="osmnx" version="1"><nd ref="42435610" /><nd ref="42439834" /><tag k="highway" v="residential" /><tag k="lanes" v="3" /><tag k="maxspeed" v="nan" /><tag k="name" v="nan" /><tag k="oneway" v="yes" /></way><way changeset="1" id="54" timestamp="2017-01-01T00:00:00Z" uid="1" user="osmnx" version="1"><nd ref="42435610" /><nd ref="42427381" /><tag k="highway" v="secondary" /><tag k="lanes" v="3" /><tag k="maxspeed" v="25 mph" /><tag k="name" v="8th Avenue" /><tag k="oneway" v="yes" /></way><way changeset="1" id="55" timestamp="2017-01-01T00:00:00Z" uid="1" user="osmnx" version="1"><nd ref="42435610" /><nd ref="42429662" /><tag k="highway" v="secondary" /><tag k="lanes" v="3" /><tag k="maxspeed" v="nan" /><tag k="name" v="nan" /><tag k="oneway" v="yes" /></way><way changeset="1" id="56" timestamp="2017-01-01T00:00:00Z" uid="1" user="osmnx" version="1"><nd ref="42439836" /><nd ref="42430265" /><tag k="highway" v="residential" /><tag k="lanes" v="3" /><tag k="maxspeed" v="nan" /><tag k="name" v="nan" /><tag k="oneway" v="yes" /></way><way changeset="1" id="57" timestamp="2017-01-01T00:00:00Z" uid="1" user="osmnx" version="1"><nd ref="42439836" /><nd ref="42427374" /><tag k="highway" v="secondary" /><tag k="lanes" v="3" /><tag k="maxspeed" v="25 mph" /><tag k="name" v="7th Avenue" /><tag k="oneway" v="yes" /></way><way changeset="1" id="58" timestamp="2017-01-01T00:00:00Z" uid="1" user="osmnx" version="1"><nd ref="42439836" /><nd ref="5849918502" /><tag k="highway" v="residential" /><tag k="lanes" v="3" /><tag k="maxspeed" v="25 mph" /><tag k="name" v="West 21st Street" /><tag k="oneway" v="yes" /></way><way changeset="1" id="59" timestamp="2017-01-01T00:00:00Z" uid="1" user="osmnx" version="1"><nd ref="42439836" /><nd ref="42434270" /><tag k="highway" v="secondary" /><tag k="lanes" v="3" /><tag k="maxspeed" v="nan" /><tag k="name" v="nan" /><tag k="oneway" v="yes" /></way><way changeset="1" id="60" timestamp="2017-01-01T00:00:00Z" uid="1" user="osmnx" version="1"><nd ref="42443674" /><nd ref="42427386" /><tag k="highway" v="primary" /><tag k="lanes" v="3" /><tag k="maxspeed" v="25 mph" /><tag k="name" v="9th Avenue" /><tag k="oneway" v="yes" /></way><way changeset="1" id="61" timestamp="2017-01-01T00:00:00Z" uid="1" user="osmnx" version="1"><nd ref="42443674" /><nd ref="5849918502" /><tag k="highway" v="residential" /><tag k="lanes" v="3" /><tag k="maxspeed" v="nan" /><tag k="name" v="nan" /><tag k="oneway" v="yes" /></way><way changeset="1" id="62" timestamp="2017-01-01T00:00:00Z" uid="1" user="osmnx" version="1"><nd ref="42443674" /><nd ref="42434279" /><tag k="highway" v="primary" /><tag k="lanes" v="3" /><tag k="maxspeed" v="nan" /><tag k="name" v="nan" /><tag k="oneway" v="yes" /></way><way changeset="1" id="63" timestamp="2017-01-01T00:00:00Z" uid="1" user="osmnx" version="1"><nd ref="42427423" /><nd ref="42430274" /><tag k="highway" v="secondary" /><tag k="lanes" v="3" /><tag k="maxspeed" v="25 mph" /><tag k="name" v="6th Avenue" /><tag k="oneway" v="yes" /></way><way changeset="1" id="64" timestamp="2017-01-01T00:00:00Z" uid="1" user="osmnx" version="1"><nd ref="42427423" /><nd ref="42427426" /><tag k="highway" v="residential" /><tag k="lanes" v="3" /><tag k="maxspeed" v="nan" /><tag k="name" v="nan" /><tag k="oneway" v="yes" /></way><way changeset="1" id="65" timestamp="2017-01-01T00:00:00Z" uid="1" user="osmnx" version="1"><nd ref="42427423" /><nd ref="42428206" /><tag k="highway" v="residential" /><tag k="lanes" v="3" /><tag k="maxspeed" v="25 mph" /><tag k="name" v="West 24th Street" /><tag k="oneway" v="yes" /></way><way changeset="1" id="66" timestamp="2017-01-01T00:00:00Z" uid="1" user="osmnx" version="1"><nd ref="42427423" /><nd ref="42430271" /><tag k="highway" v="secondary" /><tag k="lanes" v="3" /><tag k="maxspeed" v="nan" /><tag k="name" v="nan" /><tag k="oneway" v="yes" /></way><way changeset="1" id="67" timestamp="2017-01-01T00:00:00Z" uid="1" user="osmnx" version="1"><nd ref="42439840" /><nd ref="42439842" /><tag k="highway" v="secondary" /><tag k="lanes" v="3" /><tag k="maxspeed" v="nan" /><tag k="name" v="nan" /><tag k="oneway" v="yes" /></way><way changeset="1" id="68" timestamp="2017-01-01T00:00:00Z" uid="1" user="osmnx" version="1"><nd ref="42439840" /><nd ref="42427426" /><tag k="highway" v="secondary" /><tag k="lanes" v="3" /><tag k="maxspeed" v="25 mph" /><tag k="name" v="7th Avenue" /><tag k="oneway" v="yes" /></way><way changeset="1" id="69" timestamp="2017-01-01T00:00:00Z" uid="1" user="osmnx" version="1"><nd ref="42439840" /><nd ref="42430274" /><tag k="highway" v="residential" /><tag k="lanes" v="3" /><tag k="maxspeed" v="nan" /><tag k="name" v="nan" /><tag k="oneway" v="yes" /></way><way changeset="1" id="70" timestamp="2017-01-01T00:00:00Z" uid="1" user="osmnx" version="1"><nd ref="42439840" /><nd ref="42435629" /><tag k="highway" v="residential" /><tag k="lanes" v="3" /><tag k="maxspeed" v="25 mph" /><tag k="name" v="West 25th Street" /><tag k="oneway" v="yes" /></way><way changeset="1" id="71" timestamp="2017-01-01T00:00:00Z" uid="1" user="osmnx" version="1"><nd ref="42439842" /><nd ref="42439840" /><tag k="highway" v="secondary" /><tag k="lanes" v="3" /><tag k="maxspeed" v="25 mph" /><tag k="name" v="7th Avenue" /><tag k="oneway" v="yes" /></way><way changeset="1" id="72" timestamp="2017-01-01T00:00:00Z" uid="1" user="osmnx" version="1"><nd ref="42439842" /><nd ref="42435632" /><tag k="highway" v="residential" /><tag k="lanes" v="3" /><tag k="maxspeed" v="nan" /><tag k="name" v="nan" /><tag k="oneway" v="yes" /></way><way changeset="1" id="73" timestamp="2017-01-01T00:00:00Z" uid="1" user="osmnx" version="1"><nd ref="42439842" /><nd ref="42430277" /><tag k="highway" v="residential" /><tag k="lanes" v="3" /><tag k="maxspeed" v="25 mph" /><tag k="name" v="West 26th Street" /><tag k="oneway" v="yes" /></way><way changeset="1" id="74" timestamp="2017-01-01T00:00:00Z" uid="1" user="osmnx" version="1"><nd ref="42439842" /><nd ref="42434807" /><tag k="highway" v="secondary" /><tag k="lanes" v="3" /><tag k="maxspeed" v="nan" /><tag k="name" v="nan" /><tag k="oneway" v="yes" /></way><way changeset="1" id="75" timestamp="2017-01-01T00:00:00Z" uid="1" user="osmnx" version="1"><nd ref="42427427" /><nd ref="42435624" /><tag k="highway" v="secondary" /><tag k="lanes" v="3" /><tag k="maxspeed" v="nan" /><tag k="name" v="nan" /><tag k="oneway" v="yes" /></way><way changeset="1" id="76" timestamp="2017-01-01T00:00:00Z" uid="1" user="osmnx" version="1"><nd ref="42427427" /><nd ref="42427426" /><tag k="highway" v="residential" /><tag k="lanes" v="3" /><tag k="maxspeed" v="25 mph" /><tag k="name" v="West 24th Street" /><tag k="oneway" v="yes" /></way><way changeset="1" id="77" timestamp="2017-01-01T00:00:00Z" uid="1" user="osmnx" version="1"><nd ref="42427427" /><nd ref="42435629" /><tag k="highway" v="secondary" /><tag k="lanes" v="3" /><tag k="maxspeed" v="25 mph" /><tag k="name" v="8th Avenue" /><tag k="oneway" v="yes" /></way><way changeset="1" id="78" timestamp="2017-01-01T00:00:00Z" uid="1" user="osmnx" version="1"><nd ref="42427427" /><nd ref="42427477" /><tag k="highway" v="residential" /><tag k="lanes" v="3" /><tag k="maxspeed" v="nan" /><tag k="name" v="nan" /><tag k="oneway" v="yes" /></way><way changeset="1" id="79" timestamp="2017-01-01T00:00:00Z" uid="1" user="osmnx" version="1"><nd ref="42427812" /><nd ref="4443775464" /><tag k="highway" v="secondary" /><tag k="lanes" v="3" /><tag k="maxspeed" v="25 mph" /><tag k="name" v="8th Avenue" /><tag k="oneway" v="yes" /></way><way changeset="1" id="80" timestamp="2017-01-01T00:00:00Z" uid="1" user="osmnx" version="1"><nd ref="42427812" /><nd ref="42435633" /><tag k="highway" v="secondary" /><tag k="lanes" v="3" /><tag k="maxspeed" v="nan" /><tag k="name" v="nan" /><tag k="oneway" v="yes" /></way><way changeset="1" id="81" timestamp="2017-01-01T00:00:00Z" uid="1" user="osmnx" version="1"><nd ref="42427812" /><nd ref="42427805" /><tag k="highway" v="residential" /><tag k="lanes" v="3" /><tag k="maxspeed" v="nan" /><tag k="name" v="nan" /><tag k="oneway" v="yes" /></way><way changeset="1" id="82" timestamp="2017-01-01T00:00:00Z" uid="1" user="osmnx" version="1"><nd ref="5849918502" /><nd ref="42443674" /><tag k="highway" v="residential" /><tag k="lanes" v="3" /><tag k="maxspeed" v="25 mph" /><tag k="name" v="West 21st Street" /><tag k="oneway" v="yes" /></way><way changeset="1" id="83" timestamp="2017-01-01T00:00:00Z" uid="1" user="osmnx" version="1"><nd ref="5849918502" /><nd ref="42439836" /><tag k="highway" v="residential" /><tag k="lanes" v="3" /><tag k="maxspeed" v="nan" /><tag k="name" v="nan" /><tag k="oneway" v="yes" /></way><way changeset="1" id="84" timestamp="2017-01-01T00:00:00Z" uid="1" user="osmnx" version="1"><nd ref="5849918502" /><nd ref="42427381" /><tag k="highway" v="secondary" /><tag k="lanes" v="3" /><tag k="maxspeed" v="nan" /><tag k="name" v="nan" /><tag k="oneway" v="yes" /></way><way changeset="1" id="85" timestamp="2017-01-01T00:00:00Z" uid="1" user="osmnx" version="1"><nd ref="5849918502" /><nd ref="42434271" /><tag k="highway" v="secondary" /><tag k="lanes" v="3" /><tag k="maxspeed" v="25 mph" /><tag k="name" v="8th Avenue" /><tag k="oneway" v="yes" /></way><way changeset="1" id="86" timestamp="2017-01-01T00:00:00Z" uid="1" user="osmnx" version="1"><nd ref="42435624" /><nd ref="42437890" /><tag k="highway" v="secondary" /><tag k="lanes" v="3" /><tag k="maxspeed" v="25 mph" /><tag k="name" v="West 23rd Street" /><tag k="oneway" v="yes" /></way><way changeset="1" id="87" timestamp="2017-01-01T00:00:00Z" uid="1" user="osmnx" version="1"><nd ref="42435624" /><nd ref="42427427" /><tag k="highway" v="secondary" /><tag k="lanes" v="3" /><tag k="maxspeed" v="25 mph" /><tag k="name" v="8th Avenue" /><tag k="oneway" v="yes" /></way><way changeset="1" id="88" timestamp="2017-01-01T00:00:00Z" uid="1" user="osmnx" version="1"><nd ref="42435624" /><nd ref="4205565533" /><tag k="highway" v="secondary" /><tag k="lanes" v="3" /><tag k="maxspeed" v="nan" /><tag k="name" v="nan" /><tag k="oneway" v="yes" /></way><way changeset="1" id="89" timestamp="2017-01-01T00:00:00Z" uid="1" user="osmnx" version="1"><nd ref="42435624" /><nd ref="42437909" /><tag k="highway" v="secondary" /><tag k="lanes" v="3" /><tag k="maxspeed" v="nan" /><tag k="name" v="nan" /><tag k="oneway" v="yes" /></way><way changeset="1" id="90" timestamp="2017-01-01T00:00:00Z" uid="1" user="osmnx" version="1"><nd ref="42428201" /><nd ref="42437881" /><tag k="highway" v="secondary" /><tag k="lanes" v="3" /><tag k="maxspeed" v="25 mph" /><tag k="name" v="East 23rd Street" /><tag k="oneway" v="yes" /></way><way changeset="1" id="91" timestamp="2017-01-01T00:00:00Z" uid="1" user="osmnx" version="1"><nd ref="42428201" /><nd ref="449581627" /><tag k="highway" v="secondary_link" /><tag k="lanes" v="3" /><tag k="maxspeed" v="nan" /><tag k="name" v="nan" /><tag k="oneway" v="yes" /></way><way changeset="1" id="92" timestamp="2017-01-01T00:00:00Z" uid="1" user="osmnx" version="1"><nd ref="42428201" /><nd ref="42428198" /><tag k="highway" v="residential" /><tag k="lanes" v="3" /><tag k="maxspeed" v="25 mph" /><tag k="name" v="Broadway" /><tag k="oneway" v="yes" /></way><way changeset="1" id="93" timestamp="2017-01-01T00:00:00Z" uid="1" user="osmnx" version="1"><nd ref="42435629" /><nd ref="42435632" /><tag k="highway" v="secondary" /><tag k="lanes" v="3" /><tag k="maxspeed" v="25 mph" /><tag k="name" v="8th Avenue" /><tag k="oneway" v="yes" /></way><way changeset="1" id="94" timestamp="2017-01-01T00:00:00Z" uid="1" user="osmnx" version="1"><nd ref="42435629" /><nd ref="42444928" /><tag k="highway" v="residential" /><tag k="lanes" v="3" /><tag k="maxspeed" v="25 mph" /><tag k="name" v="West 25th Street" /><tag k="oneway" v="yes" /></way><way changeset="1" id="95" timestamp="2017-01-01T00:00:00Z" uid="1" user="osmnx" version="1"><nd ref="42435629" /><nd ref="42427427" /><tag k="highway" v="secondary" /><tag k="lanes" v="3" /><tag k="maxspeed" v="nan" /><tag k="name" v="nan" /><tag k="oneway" v="yes" /></way><way changeset="1" id="96" timestamp="2017-01-01T00:00:00Z" uid="1" user="osmnx" version="1"><nd ref="42435629" /><nd ref="42439840" /><tag k="highway" v="residential" /><tag k="lanes" v="3" /><tag k="maxspeed" v="nan" /><tag k="name" v="nan" /><tag k="oneway" v="yes" /></way><way changeset="1" id="97" timestamp="2017-01-01T00:00:00Z" uid="1" user="osmnx" version="1"><nd ref="42428206" /><nd ref="42437881" /><tag k="highway" v="secondary" /><tag k="lanes" v="3" /><tag k="maxspeed" v="25 mph" /><tag k="name" v="5th Avenue" /><tag k="oneway" v="yes" /></way><way changeset="1" id="98" timestamp="2017-01-01T00:00:00Z" uid="1" user="osmnx" version="1"><nd ref="42428206" /><nd ref="449581627" /><tag k="highway" v="secondary" /><tag k="lanes" v="3" /><tag k="maxspeed" v="nan" /><tag k="name" v="nan" /><tag k="oneway" v="yes" /></way><way changeset="1" id="99" timestamp="2017-01-01T00:00:00Z" uid="1" user="osmnx" version="1"><nd ref="42428206" /><nd ref="42427423" /><tag k="highway" v="residential" /><tag k="lanes" v="3" /><tag k="maxspeed" v="nan" /><tag k="name" v="nan" /><tag k="oneway" v="yes" /></way><way changeset="1" id="100" timestamp="2017-01-01T00:00:00Z" uid="1" user="osmnx" version="1"><nd ref="42429661" /><nd ref="42439834" /><tag k="highway" v="secondary" /><tag k="lanes" v="3" /><tag k="maxspeed" v="nan" /><tag k="name" v="nan" /><tag k="oneway" v="yes" /></way><way changeset="1" id="101" timestamp="2017-01-01T00:00:00Z" uid="1" user="osmnx" version="1"><nd ref="42429661" /><nd ref="42429659" /><tag k="highway" v="residential" /><tag k="lanes" v="3" /><tag k="maxspeed" v="25 mph" /><tag k="name" v="West 18th Street" /><tag k="oneway" v="yes" /></way><way changeset="1" id="102" timestamp="2017-01-01T00:00:00Z" uid="1" user="osmnx" version="1"><nd ref="42429661" /><nd ref="42439275" /><tag k="highway" v="secondary" /><tag k="lanes" v="3" /><tag k="maxspeed" v="25 mph" /><tag k="name" v="7th Avenue" /><tag k="oneway" v="yes" /></way><way changeset="1" id="103" timestamp="2017-01-01T00:00:00Z" uid="1" user="osmnx" version="1"><nd ref="42429661" /><nd ref="42429662" /><tag k="highway" v="residential" /><tag k="lanes" v="3" /><tag k="maxspeed" v="nan" /><tag k="name" v="nan" /><tag k="oneway" v="yes" /></way><way changeset="1" id="104" timestamp="2017-01-01T00:00:00Z" uid="1" user="osmnx" version="1"><nd ref="42435632" /><nd ref="42434810" /><tag k="highway" v="secondary" /><tag k="lanes" v="3" /><tag k="maxspeed" v="25 mph" /><tag k="name" v="8th Avenue" /><tag k="oneway" v="yes" /></way><way changeset="1" id="105" timestamp="2017-01-01T00:00:00Z" uid="1" user="osmnx" version="1"><nd ref="42435632" /><nd ref="42439842" /><tag k="highway" v="residential" /><tag k="lanes" v="3" /><tag k="maxspeed" v="25 mph" /><tag k="name" v="West 26th Street" /><tag k="oneway" v="yes" /></way><way changeset="1" id="106" timestamp="2017-01-01T00:00:00Z" uid="1" user="osmnx" version="1"><nd ref="42435632" /><nd ref="42444933" /><tag k="highway" v="residential" /><tag k="lanes" v="3" /><tag k="maxspeed" v="nan" /><tag k="name" v="nan" /><tag k="oneway" v="yes" /></way><way changeset="1" id="107" timestamp="2017-01-01T00:00:00Z" uid="1" user="osmnx" version="1"><nd ref="42435632" /><nd ref="42435629" /><tag k="highway" v="secondary" /><tag k="lanes" v="3" /><tag k="maxspeed" v="nan" /><tag k="name" v="nan" /><tag k="oneway" v="yes" /></way><way changeset="1" id="108" timestamp="2017-01-01T00:00:00Z" uid="1" user="osmnx" version="1"><nd ref="42435633" /><nd ref="42438672" /><tag k="highway" v="residential" /><tag k="lanes" v="3" /><tag k="maxspeed" v="nan" /><tag k="name" v="nan" /><tag k="oneway" v="yes" /></way><way changeset="1" id="109" timestamp="2017-01-01T00:00:00Z" uid="1" user="osmnx" version="1"><nd ref="42435633" /><nd ref="42434810" /><tag k="highway" v="secondary" /><tag k="lanes" v="3" /><tag k="maxspeed" v="nan" /><tag k="name" v="nan" /><tag k="oneway" v="yes" /></way><way changeset="1" id="110" timestamp="2017-01-01T00:00:00Z" uid="1" user="osmnx" version="1"><nd ref="42435633" /><nd ref="42438547" /><tag k="highway" v="residential" /><tag k="lanes" v="3" /><tag k="maxspeed" v="25 mph" /><tag k="name" v="West 28th Street" /><tag k="oneway" v="yes" /></way><way changeset="1" id="111" timestamp="2017-01-01T00:00:00Z" uid="1" user="osmnx" version="1"><nd ref="42435633" /><nd ref="42427812" /><tag k="highway" v="secondary" /><tag k="lanes" v="3" /><tag k="maxspeed" v="25 mph" /><tag k="name" v="8th Avenue" /><tag k="oneway" v="yes" /></way><way changeset="1" id="112" timestamp="2017-01-01T00:00:00Z" uid="1" user="osmnx" version="1"><nd ref="42430259" /><nd ref="42439275" /><tag k="highway" v="residential" /><tag k="lanes" v="3" /><tag k="maxspeed" v="25 mph" /><tag k="name" v="West 17th Street" /><tag k="oneway" v="yes" /></way><way changeset="1" id="113" timestamp="2017-01-01T00:00:00Z" uid="1" user="osmnx" version="1"><nd ref="42430259" /><nd ref="42429659" /><tag k="highway" v="secondary" /><tag k="lanes" v="3" /><tag k="maxspeed" v="25 mph" /><tag k="name" v="6th Avenue" /><tag k="oneway" v="yes" /></way><way changeset="1" id="114" timestamp="2017-01-01T00:00:00Z" uid="1" user="osmnx" version="1"><nd ref="42428212" /><nd ref="42428216" /><tag k="highway" v="residential" /><tag k="lanes" v="3" /><tag k="maxspeed" v="nan" /><tag k="name" v="nan" /><tag k="oneway" v="yes" /></way><way changeset="1" id="115" timestamp="2017-01-01T00:00:00Z" uid="1" user="osmnx" version="1"><nd ref="42428212" /><nd ref="42430274" /><tag k="highway" v="residential" /><tag k="lanes" v="3" /><tag k="maxspeed" v="25 mph" /><tag k="name" v="West 25th Street" /><tag k="oneway" v="yes" /></way><way changeset="1" id="116" timestamp="2017-01-01T00:00:00Z" uid="1" user="osmnx" version="1"><nd ref="42428212" /><nd ref="449581627" /><tag k="highway" v="living_street" /><tag k="lanes" v="3" /><tag k="maxspeed" v="nan" /><tag k="name" v="nan" /><tag k="oneway" v="yes" /></way><way changeset="1" id="117" timestamp="2017-01-01T00:00:00Z" uid="1" user="osmnx" version="1"><nd ref="358447541" /><nd ref="42444933" /><tag k="highway" v="residential" /><tag k="lanes" v="3" /><tag k="maxspeed" v="25 mph" /><tag k="name" v="West 26th Street" /><tag k="oneway" v="yes" /></way><way changeset="1" id="118" timestamp="2017-01-01T00:00:00Z" uid="1" user="osmnx" version="1"><nd ref="358447541" /><nd ref="42445310" /><tag k="highway" v="residential" /><tag k="lanes" v="3" /><tag k="maxspeed" v="nan" /><tag k="name" v="nan" /><tag k="oneway" v="yes" /></way><way changeset="1" id="119" timestamp="2017-01-01T00:00:00Z" uid="1" user="osmnx" version="1"><nd ref="42439834" /><nd ref="42435610" /><tag k="highway" v="residential" /><tag k="lanes" v="3" /><tag k="maxspeed" v="25 mph" /><tag k="name" v="West 19th Street" /><tag k="oneway" v="yes" /></way><way changeset="1" id="120" timestamp="2017-01-01T00:00:00Z" uid="1" user="osmnx" version="1"><nd ref="42439834" /><nd ref="42429661" /><tag k="highway" v="secondary" /><tag k="lanes" v="3" /><tag k="maxspeed" v="25 mph" /><tag k="name" v="7th Avenue" /><tag k="oneway" v="yes" /></way><way changeset="1" id="121" timestamp="2017-01-01T00:00:00Z" uid="1" user="osmnx" version="1"><nd ref="42439834" /><nd ref="42427374" /><tag k="highway" v="secondary" /><tag k="lanes" v="3" /><tag k="maxspeed" v="nan" /><tag k="name" v="nan" /><tag k="oneway" v="yes" /></way><way changeset="1" id="122" timestamp="2017-01-01T00:00:00Z" uid="1" user="osmnx" version="1"><nd ref="42439834" /><nd ref="42430263" /><tag k="highway" v="residential" /><tag k="lanes" v="3" /><tag k="maxspeed" v="nan" /><tag k="name" v="nan" /><tag k="oneway" v="yes" /></way><way changeset="1" id="123" timestamp="2017-01-01T00:00:00Z" uid="1" user="osmnx" version="1"><nd ref="42430263" /><nd ref="42439834" /><tag k="highway" v="residential" /><tag k="lanes" v="3" /><tag k="maxspeed" v="25 mph" /><tag k="name" v="West 19th Street" /><tag k="oneway" v="yes" /></way><way changeset="1" id="124" timestamp="2017-01-01T00:00:00Z" uid="1" user="osmnx" version="1"><nd ref="42430263" /><nd ref="42427371" /><tag k="highway" v="secondary" /><tag k="lanes" v="3" /><tag k="maxspeed" v="25 mph" /><tag k="name" v="6th Avenue" /><tag k="oneway" v="yes" /></way><way changeset="1" id="125" timestamp="2017-01-01T00:00:00Z" uid="1" user="osmnx" version="1"><nd ref="42430263" /><nd ref="42429659" /><tag k="highway" v="secondary" /><tag k="lanes" v="3" /><tag k="maxspeed" v="nan" /><tag k="name" v="nan" /><tag k="oneway" v="yes" /></way><way changeset="1" id="126" timestamp="2017-01-01T00:00:00Z" uid="1" user="osmnx" version="1"><nd ref="42428216" /><nd ref="42428212" /><tag k="highway" v="residential" /><tag k="lanes" v="3" /><tag k="maxspeed" v="25 mph" /><tag k="name" v="Broadway" /><tag k="oneway" v="yes" /></way><way changeset="1" id="127" timestamp="2017-01-01T00:00:00Z" uid="1" user="osmnx" version="1"><nd ref="42428216" /><nd ref="42428220" /><tag k="highway" v="residential" /><tag k="lanes" v="3" /><tag k="maxspeed" v="nan" /><tag k="name" v="nan" /><tag k="oneway" v="yes" /></way><way changeset="1" id="128" timestamp="2017-01-01T00:00:00Z" uid="1" user="osmnx" version="1"><nd ref="42428216" /><nd ref="42430277" /><tag k="highway" v="residential" /><tag k="lanes" v="3" /><tag k="maxspeed" v="nan" /><tag k="name" v="nan" /><tag k="oneway" v="yes" /></way><way changeset="1" id="129" timestamp="2017-01-01T00:00:00Z" uid="1" user="osmnx" version="1"><nd ref="42430265" /><nd ref="42427371" /><tag k="highway" v="secondary" /><tag k="lanes" v="3" /><tag k="maxspeed" v="nan" /><tag k="name" v="nan" /><tag k="oneway" v="yes" /></way><way changeset="1" id="130" timestamp="2017-01-01T00:00:00Z" uid="1" user="osmnx" version="1"><nd ref="42430265" /><nd ref="42439836" /><tag k="highway" v="residential" /><tag k="lanes" v="3" /><tag k="maxspeed" v="25 mph" /><tag k="name" v="West 21st Street" /><tag k="oneway" v="yes" /></way><way changeset="1" id="131" timestamp="2017-01-01T00:00:00Z" uid="1" user="osmnx" version="1"><nd ref="42430265" /><nd ref="42430269" /><tag k="highway" v="secondary" /><tag k="lanes" v="3" /><tag k="maxspeed" v="25 mph" /><tag k="name" v="6th Avenue" /><tag k="oneway" v="yes" /></way><way changeset="1" id="132" timestamp="2017-01-01T00:00:00Z" uid="1" user="osmnx" version="1"><nd ref="42430265" /><nd ref="42443671" /><tag k="highway" v="residential" /><tag k="lanes" v="3" /><tag k="maxspeed" v="nan" /><tag k="name" v="nan" /><tag k="oneway" v="yes" /></way><way changeset="1" id="133" timestamp="2017-01-01T00:00:00Z" uid="1" user="osmnx" version="1"><nd ref="449581627" /><nd ref="42428201" /><tag k="highway" v="secondary_link" /><tag k="lanes" v="3" /><tag k="maxspeed" v="25 mph" /><tag k="name" v="Broadway" /><tag k="oneway" v="yes" /></way><way changeset="1" id="134" timestamp="2017-01-01T00:00:00Z" uid="1" user="osmnx" version="1"><nd ref="449581627" /><nd ref="42428212" /><tag k="highway" v="living_street" /><tag k="lanes" v="3" /><tag k="maxspeed" v="nan" /><tag k="name" v="Broadway" /><tag k="oneway" v="yes" /></way><way changeset="1" id="135" timestamp="2017-01-01T00:00:00Z" uid="1" user="osmnx" version="1"><nd ref="449581627" /><nd ref="42428206" /><tag k="highway" v="secondary" /><tag k="lanes" v="3" /><tag k="maxspeed" v="25 mph" /><tag k="name" v="5th Avenue" /><tag k="oneway" v="yes" /></way><way changeset="1" id="136" timestamp="2017-01-01T00:00:00Z" uid="1" user="osmnx" version="1"><nd ref="42428220" /><nd ref="42428216" /><tag k="highway" v="residential" /><tag k="lanes" v="3" /><tag k="maxspeed" v="25 mph" /><tag k="name" v="Broadway" /><tag k="oneway" v="yes" /></way><way changeset="1" id="137" timestamp="2017-01-01T00:00:00Z" uid="1" user="osmnx" version="1"><nd ref="42428220" /><nd ref="42430279" /><tag k="highway" v="residential" /><tag k="lanes" v="3" /><tag k="maxspeed" v="25 mph" /><tag k="name" v="West 27th Street" /><tag k="oneway" v="yes" /></way><way changeset="1" id="138" timestamp="2017-01-01T00:00:00Z" uid="1" user="osmnx" version="1"><nd ref="42428220" /><nd ref="42428223" /><tag k="highway" v="residential" /><tag k="lanes" v="3" /><tag k="maxspeed" v="nan" /><tag k="name" v="nan" /><tag k="oneway" v="yes" /></way><way changeset="1" id="139" timestamp="2017-01-01T00:00:00Z" uid="1" user="osmnx" version="1"><nd ref="42430269" /><nd ref="42430265" /><tag k="highway" v="secondary" /><tag k="lanes" v="3" /><tag k="maxspeed" v="nan" /><tag k="name" v="nan" /><tag k="oneway" v="yes" /></way><way changeset="1" id="140" timestamp="2017-01-01T00:00:00Z" uid="1" user="osmnx" version="1"><nd ref="42430269" /><nd ref="42434268" /><tag k="highway" v="residential" /><tag k="lanes" v="3" /><tag k="maxspeed" v="25 mph" /><tag k="name" v="West 22nd Street" /><tag k="oneway" v="yes" /></way><way changeset="1" id="141" timestamp="2017-01-01T00:00:00Z" uid="1" user="osmnx" version="1"><nd ref="42430269" /><nd ref="42434270" /><tag k="highway" v="residential" /><tag k="lanes" v="3" /><tag k="maxspeed" v="nan" /><tag k="name" v="nan" /><tag k="oneway" v="yes" /></way><way changeset="1" id="142" timestamp="2017-01-01T00:00:00Z" uid="1" user="osmnx" version="1"><nd ref="42430269" /><nd ref="42430271" /><tag k="highway" v="secondary" /><tag k="lanes" v="3" /><tag k="maxspeed" v="25 mph" /><tag k="name" v="6th Avenue" /><tag k="oneway" v="yes" /></way><way changeset="1" id="143" timestamp="2017-01-01T00:00:00Z" uid="1" user="osmnx" version="1"><nd ref="42430271" /><nd ref="42437881" /><tag k="highway" v="secondary" /><tag k="lanes" v="3" /><tag k="maxspeed" v="25 mph" /><tag k="name" v="West 23rd Street" /><tag k="oneway" v="yes" /></way><way changeset="1" id="144" timestamp="2017-01-01T00:00:00Z" uid="1" user="osmnx" version="1"><nd ref="42430271" /><nd ref="42437890" /><tag k="highway" v="secondary" /><tag k="lanes" v="3" /><tag k="maxspeed" v="25 mph" /><tag k="name" v="West 23rd Street" /><tag k="oneway" v="yes" /></way><way changeset="1" id="145" timestamp="2017-01-01T00:00:00Z" uid="1" user="osmnx" version="1"><nd ref="42430271" /><nd ref="42430269" /><tag k="highway" v="secondary" /><tag k="lanes" v="3" /><tag k="maxspeed" v="nan" /><tag k="name" v="nan" /><tag k="oneway" v="yes" /></way><way changeset="1" id="146" timestamp="2017-01-01T00:00:00Z" uid="1" user="osmnx" version="1"><nd ref="42430271" /><nd ref="42427423" /><tag k="highway" v="secondary" /><tag k="lanes" v="3" /><tag k="maxspeed" v="25 mph" /><tag k="name" v="6th Avenue" /><tag k="oneway" v="yes" /></way><way changeset="1" id="147" timestamp="2017-01-01T00:00:00Z" uid="1" user="osmnx" version="1"><nd ref="42428192" /><nd ref="42428198" /><tag k="highway" v="residential" /><tag k="lanes" v="3" /><tag k="maxspeed" v="nan" /><tag k="name" v="nan" /><tag k="oneway" v="yes" /></way><way changeset="1" id="148" timestamp="2017-01-01T00:00:00Z" uid="1" user="osmnx" version="1"><nd ref="42428192" /><nd ref="42443671" /><tag k="highway" v="residential" /><tag k="lanes" v="3" /><tag k="maxspeed" v="25 mph" /><tag k="name" v="East 21st Street" /><tag k="oneway" v="yes" /></way><way changeset="1" id="149" timestamp="2017-01-01T00:00:00Z" uid="1" user="osmnx" version="1"><nd ref="42430274" /><nd ref="42439840" /><tag k="highway" v="residential" /><tag k="lanes" v="3" /><tag k="maxspeed" v="25 mph" /><tag k="name" v="West 25th Street" /><tag k="oneway" v="yes" /></way><way changeset="1" id="150" timestamp="2017-01-01T00:00:00Z" uid="1" user="osmnx" version="1"><nd ref="42430274" /><nd ref="42428212" /><tag k="highway" v="residential" /><tag k="lanes" v="3" /><tag k="maxspeed" v="nan" /><tag k="name" v="nan" /><tag k="oneway" v="yes" /></way><way changeset="1" id="151" timestamp="2017-01-01T00:00:00Z" uid="1" user="osmnx" version="1"><nd ref="42430274" /><nd ref="42430277" /><tag k="highway" v="secondary" /><tag k="lanes" v="3" /><tag k="maxspeed" v="25 mph" /><tag k="name" v="6th Avenue" /><tag k="oneway" v="yes" /></way><way changeset="1" id="152" timestamp="2017-01-01T00:00:00Z" uid="1" user="osmnx" version="1"><nd ref="42430274" /><nd ref="42427423" /><tag k="highway" v="secondary" /><tag k="lanes" v="3" /><tag k="maxspeed" v="nan" /><tag k="name" v="nan" /><tag k="oneway" v="yes" /></way><way changeset="1" id="153" timestamp="2017-01-01T00:00:00Z" uid="1" user="osmnx" version="1"><nd ref="42430277" /><nd ref="42428216" /><tag k="highway" v="residential" /><tag k="lanes" v="3" /><tag k="maxspeed" v="25 mph" /><tag k="name" v="West 26th Street" /><tag k="oneway" v="yes" /></way><way changeset="1" id="154" timestamp="2017-01-01T00:00:00Z" uid="1" user="osmnx" version="1"><nd ref="42430277" /><nd ref="42439842" /><tag k="highway" v="residential" /><tag k="lanes" v="3" /><tag k="maxspeed" v="nan" /><tag k="name" v="nan" /><tag k="oneway" v="yes" /></way><way changeset="1" id="155" timestamp="2017-01-01T00:00:00Z" uid="1" user="osmnx" version="1"><nd ref="42430277" /><nd ref="42430274" /><tag k="highway" v="secondary" /><tag k="lanes" v="3" /><tag k="maxspeed" v="nan" /><tag k="name" v="nan" /><tag k="oneway" v="yes" /></way><way changeset="1" id="156" timestamp="2017-01-01T00:00:00Z" uid="1" user="osmnx" version="1"><nd ref="42430277" /><nd ref="42430279" /><tag k="highway" v="secondary" /><tag k="lanes" v="3" /><tag k="maxspeed" v="25 mph" /><tag k="name" v="6th Avenue" /><tag k="oneway" v="yes" /></way><way changeset="1" id="157" timestamp="2017-01-01T00:00:00Z" uid="1" user="osmnx" version="1"><nd ref="42430279" /><nd ref="42430282" /><tag k="highway" v="secondary" /><tag k="lanes" v="3" /><tag k="maxspeed" v="25 mph" /><tag k="name" v="6th Avenue" /><tag k="oneway" v="yes" /></way><way changeset="1" id="158" timestamp="2017-01-01T00:00:00Z" uid="1" user="osmnx" version="1"><nd ref="42430279" /><nd ref="42428220" /><tag k="highway" v="residential" /><tag k="lanes" v="3" /><tag k="maxspeed" v="nan" /><tag k="name" v="nan" /><tag k="oneway" v="yes" /></way><way changeset="1" id="159" timestamp="2017-01-01T00:00:00Z" uid="1" user="osmnx" version="1"><nd ref="42430279" /><nd ref="42430277" /><tag k="highway" v="secondary" /><tag k="lanes" v="3" /><tag k="maxspeed" v="nan" /><tag k="name" v="nan" /><tag k="oneway" v="yes" /></way><way changeset="1" id="160" timestamp="2017-01-01T00:00:00Z" uid="1" user="osmnx" version="1"><nd ref="42430279" /><nd ref="42434807" /><tag k="highway" v="residential" /><tag k="lanes" v="3" /><tag k="maxspeed" v="25 mph" /><tag k="name" v="West 27th Street" /><tag k="oneway" v="yes" /></way><way changeset="1" id="161" timestamp="2017-01-01T00:00:00Z" uid="1" user="osmnx" version="1"><nd ref="42430282" /><nd ref="42428223" /><tag k="highway" v="residential" /><tag k="lanes" v="3" /><tag k="maxspeed" v="25 mph" /><tag k="name" v="West 28th Street" /><tag k="oneway" v="yes" /></way><way changeset="1" id="162" timestamp="2017-01-01T00:00:00Z" uid="1" user="osmnx" version="1"><nd ref="42430282" /><nd ref="42438547" /><tag k="highway" v="residential" /><tag k="lanes" v="3" /><tag k="maxspeed" v="nan" /><tag k="name" v="nan" /><tag k="oneway" v="yes" /></way><way changeset="1" id="163" timestamp="2017-01-01T00:00:00Z" uid="1" user="osmnx" version="1"><nd ref="42430282" /><nd ref="42427797" /><tag k="highway" v="secondary" /><tag k="lanes" v="3" /><tag k="maxspeed" v="25 mph" /><tag k="name" v="6th Avenue" /><tag k="oneway" v="yes" /></way><way changeset="1" id="164" timestamp="2017-01-01T00:00:00Z" uid="1" user="osmnx" version="1"><nd ref="42430282" /><nd ref="42430279" /><tag k="highway" v="secondary" /><tag k="lanes" v="3" /><tag k="maxspeed" v="nan" /><tag k="name" v="nan" /><tag k="oneway" v="yes" /></way><way changeset="1" id="165" timestamp="2017-01-01T00:00:00Z" uid="1" user="osmnx" version="1"><nd ref="42427426" /><nd ref="42439840" /><tag k="highway" v="secondary" /><tag k="lanes" v="3" /><tag k="maxspeed" v="nan" /><tag k="name" v="nan" /><tag k="oneway" v="yes" /></way><way changeset="1" id="166" timestamp="2017-01-01T00:00:00Z" uid="1" user="osmnx" version="1"><nd ref="42427426" /><nd ref="42437890" /><tag k="highway" v="secondary" /><tag k="lanes" v="3" /><tag k="maxspeed" v="25 mph" /><tag k="name" v="7th Avenue" /><tag k="oneway" v="yes" /></way><way changeset="1" id="167" timestamp="2017-01-01T00:00:00Z" uid="1" user="osmnx" version="1"><nd ref="42427426" /><nd ref="42427427" /><tag k="highway" v="residential" /><tag k="lanes" v="3" /><tag k="maxspeed" v="nan" /><tag k="name" v="nan" /><tag k="oneway" v="yes" /></way><way changeset="1" id="168" timestamp="2017-01-01T00:00:00Z" uid="1" user="osmnx" version="1"><nd ref="42427426" /><nd ref="42427423" /><tag k="highway" v="residential" /><tag k="lanes" v="3" /><tag k="maxspeed" v="25 mph" /><tag k="name" v="West 24th Street" /><tag k="oneway" v="yes" /></way><way changeset="1" id="169" timestamp="2017-01-01T00:00:00Z" uid="1" user="osmnx" version="1"><nd ref="42430288" /><nd ref="42430292" /><tag k="highway" v="secondary" /><tag k="lanes" v="3" /><tag k="maxspeed" v="25 mph" /><tag k="name" v="6th Avenue" /><tag k="oneway" v="yes" /></way><way changeset="1" id="170" timestamp="2017-01-01T00:00:00Z" uid="1" user="osmnx" version="1"><nd ref="42430288" /><nd ref="42435420" /><tag k="highway" v="tertiary" /><tag k="lanes" v="3" /><tag k="maxspeed" v="nan" /><tag k="name" v="nan" /><tag k="oneway" v="yes" /></way><way changeset="1" id="171" timestamp="2017-01-01T00:00:00Z" uid="1" user="osmnx" version="1"><nd ref="42430288" /><nd ref="42427797" /><tag k="highway" v="secondary" /><tag k="lanes" v="3" /><tag k="maxspeed" v="nan" /><tag k="name" v="nan" /><tag k="oneway" v="yes" /></way><way changeset="1" id="172" timestamp="2017-01-01T00:00:00Z" uid="1" user="osmnx" version="1"><nd ref="42430292" /><nd ref="42430288" /><tag k="highway" v="secondary" /><tag k="lanes" v="3" /><tag k="maxspeed" v="nan" /><tag k="name" v="nan" /><tag k="oneway" v="yes" /></way><way changeset="1" id="173" timestamp="2017-01-01T00:00:00Z" uid="1" user="osmnx" version="1"><nd ref="42430292" /><nd ref="42435422" /><tag k="highway" v="tertiary" /><tag k="lanes" v="3" /><tag k="maxspeed" v="25 mph" /><tag k="name" v="West 31st Street" /><tag k="oneway" v="yes" /></way><way changeset="1" id="174" timestamp="2017-01-01T00:00:00Z" uid="1" user="osmnx" version="1"><nd ref="42427477" /><nd ref="42444928" /><tag k="highway" v="primary" /><tag k="lanes" v="3" /><tag k="maxspeed" v="nan" /><tag k="name" v="nan" /><tag k="oneway" v="yes" /></way><way changeset="1" id="175" timestamp="2017-01-01T00:00:00Z" uid="1" user="osmnx" version="1"><nd ref="42427477" /><nd ref="42427427" /><tag k="highway" v="residential" /><tag k="lanes" v="3" /><tag k="maxspeed" v="25 mph" /><tag k="name" v="West 24th Street" /><tag k="oneway" v="yes" /></way><way changeset="1" id="176" timestamp="2017-01-01T00:00:00Z" uid="1" user="osmnx" version="1"><nd ref="42427477" /><nd ref="42437909" /><tag k="highway" v="primary" /><tag k="lanes" v="3" /><tag k="maxspeed" v="25 mph" /><tag k="name" v="9th Avenue" /><tag k="oneway" v="yes" /></way><way changeset="1" id="177" timestamp="2017-01-01T00:00:00Z" uid="1" user="osmnx" version="1"><nd ref="42432214" /><nd ref="42435596" /><tag k="highway" v="secondary" /><tag k="lanes" v="3" /><tag k="maxspeed" v="25 mph" /><tag k="name" v="8th Avenue" /><tag k="oneway" v="yes" /></way><way changeset="1" id="178" timestamp="2017-01-01T00:00:00Z" uid="1" user="osmnx" version="1"><nd ref="42429659" /><nd ref="42430259" /><tag k="highway" v="secondary" /><tag k="lanes" v="3" /><tag k="maxspeed" v="nan" /><tag k="name" v="nan" /><tag k="oneway" v="yes" /></way><way changeset="1" id="179" timestamp="2017-01-01T00:00:00Z" uid="1" user="osmnx" version="1"><nd ref="42429659" /><nd ref="42429661" /><tag k="highway" v="residential" /><tag k="lanes" v="3" /><tag k="maxspeed" v="nan" /><tag k="name" v="nan" /><tag k="oneway" v="yes" /></way><way changeset="1" id="180" timestamp="2017-01-01T00:00:00Z" uid="1" user="osmnx" version="1"><nd ref="42429659" /><nd ref="42430263" /><tag k="highway" v="secondary" /><tag k="lanes" v="3" /><tag k="maxspeed" v="25 mph" /><tag k="name" v="6th Avenue" /><tag k="oneway" v="yes" /></way><way changeset="1" id="181" timestamp="2017-01-01T00:00:00Z" uid="1" user="osmnx" version="1"><nd ref="42434268" /><nd ref="42437881" /><tag k="highway" v="secondary" /><tag k="lanes" v="3" /><tag k="maxspeed" v="nan" /><tag k="name" v="nan" /><tag k="oneway" v="yes" /></way><way changeset="1" id="182" timestamp="2017-01-01T00:00:00Z" uid="1" user="osmnx" version="1"><nd ref="42434268" /><nd ref="42430269" /><tag k="highway" v="residential" /><tag k="lanes" v="3" /><tag k="maxspeed" v="nan" /><tag k="name" v="nan" /><tag k="oneway" v="yes" /></way><way changeset="1" id="183" timestamp="2017-01-01T00:00:00Z" uid="1" user="osmnx" version="1"><nd ref="42434268" /><nd ref="42428198" /><tag k="highway" v="residential" /><tag k="lanes" v="3" /><tag k="maxspeed" v="25 mph" /><tag k="name" v="East 22nd Street" /><tag k="oneway" v="yes" /></way><way changeset="1" id="184" timestamp="2017-01-01T00:00:00Z" uid="1" user="osmnx" version="1"><nd ref="42434268" /><nd ref="42443671" /><tag k="highway" v="secondary" /><tag k="lanes" v="3" /><tag k="maxspeed" v="25 mph" /><tag k="name" v="5th Avenue" /><tag k="oneway" v="yes" /></way><way changeset="1" id="185" timestamp="2017-01-01T00:00:00Z" uid="1" user="osmnx" version="1"><nd ref="4205565533" /><nd ref="42435624" /><tag k="highway" v="secondary" /><tag k="lanes" v="3" /><tag k="maxspeed" v="25 mph" /><tag k="name" v="8th Avenue" /><tag k="oneway" v="yes" /></way><way changeset="1" id="186" timestamp="2017-01-01T00:00:00Z" uid="1" user="osmnx" version="1"><nd ref="4205565533" /><nd ref="42434271" /><tag k="highway" v="secondary" /><tag k="lanes" v="3" /><tag k="maxspeed" v="nan" /><tag k="name" v="nan" /><tag k="oneway" v="yes" /></way><way changeset="1" id="187" timestamp="2017-01-01T00:00:00Z" uid="1" user="osmnx" version="1"><nd ref="42429662" /><nd ref="42435610" /><tag k="highway" v="secondary" /><tag k="lanes" v="3" /><tag k="maxspeed" v="25 mph" /><tag k="name" v="8th Avenue" /><tag k="oneway" v="yes" /></way><way changeset="1" id="188" timestamp="2017-01-01T00:00:00Z" uid="1" user="osmnx" version="1"><nd ref="42429662" /><nd ref="42435603" /><tag k="highway" v="secondary" /><tag k="lanes" v="3" /><tag k="maxspeed" v="nan" /><tag k="name" v="nan" /><tag k="oneway" v="yes" /></way><way changeset="1" id="189" timestamp="2017-01-01T00:00:00Z" uid="1" user="osmnx" version="1"><nd ref="42429662" /><nd ref="42429661" /><tag k="highway" v="residential" /><tag k="lanes" v="3" /><tag k="maxspeed" v="25 mph" /><tag k="name" v="West 18th Street" /><tag k="oneway" v="yes" /></way><way changeset="1" id="190" timestamp="2017-01-01T00:00:00Z" uid="1" user="osmnx" version="1"><nd ref="42434271" /><nd ref="42434270" /><tag k="highway" v="residential" /><tag k="lanes" v="3" /><tag k="maxspeed" v="25 mph" /><tag k="name" v="West 22nd Street" /><tag k="oneway" v="yes" /></way><way changeset="1" id="191" timestamp="2017-01-01T00:00:00Z" uid="1" user="osmnx" version="1"><nd ref="42434271" /><nd ref="4205565533" /><tag k="highway" v="secondary" /><tag k="lanes" v="3" /><tag k="maxspeed" v="25 mph" /><tag k="name" v="8th Avenue" /><tag k="oneway" v="yes" /></way><way changeset="1" id="192" timestamp="2017-01-01T00:00:00Z" uid="1" user="osmnx" version="1"><nd ref="42434271" /><nd ref="5849918502" /><tag k="highway" v="secondary" /><tag k="lanes" v="3" /><tag k="maxspeed" v="nan" /><tag k="name" v="nan" /><tag k="oneway" v="yes" /></way><way changeset="1" id="193" timestamp="2017-01-01T00:00:00Z" uid="1" user="osmnx" version="1"><nd ref="42434271" /><nd ref="42434279" /><tag k="highway" v="residential" /><tag k="lanes" v="3" /><tag k="maxspeed" v="nan" /><tag k="name" v="nan" /><tag k="oneway" v="yes" /></way><way changeset="1" id="194" timestamp="2017-01-01T00:00:00Z" uid="1" user="osmnx" version="1"><nd ref="42439440" /><nd ref="42435422" /><tag k="highway" v="secondary" /><tag k="lanes" v="3" /><tag k="maxspeed" v="25 mph" /><tag k="name" v="7th Avenue" /><tag k="oneway" v="yes" /></way><way changeset="1" id="195" timestamp="2017-01-01T00:00:00Z" uid="1" user="osmnx" version="1"><nd ref="42428198" /><nd ref="42428192" /><tag k="highway" v="residential" /><tag k="lanes" v="3" /><tag k="maxspeed" v="25 mph" /><tag k="name" v="Broadway" /><tag k="oneway" v="yes" /></way><way changeset="1" id="196" timestamp="2017-01-01T00:00:00Z" uid="1" user="osmnx" version="1"><nd ref="42428198" /><nd ref="42428201" /><tag k="highway" v="residential" /><tag k="lanes" v="3" /><tag k="maxspeed" v="nan" /><tag k="name" v="nan" /><tag k="oneway" v="yes" /></way><way changeset="1" id="197" timestamp="2017-01-01T00:00:00Z" uid="1" user="osmnx" version="1"><nd ref="42428198" /><nd ref="42434268" /><tag k="highway" v="residential" /><tag k="lanes" v="3" /><tag k="maxspeed" v="nan" /><tag k="name" v="nan" /><tag k="oneway" v="yes" /></way><way changeset="1" id="198" timestamp="2017-01-01T00:00:00Z" uid="1" user="osmnx" version="1"><nd ref="42434279" /><nd ref="42443674" /><tag k="highway" v="primary" /><tag k="lanes" v="3" /><tag k="maxspeed" v="25 mph" /><tag k="name" v="9th Avenue" /><tag k="oneway" v="yes" /></way><way changeset="1" id="199" timestamp="2017-01-01T00:00:00Z" uid="1" user="osmnx" version="1"><nd ref="42434279" /><nd ref="42437909" /><tag k="highway" v="primary" /><tag k="lanes" v="3" /><tag k="maxspeed" v="nan" /><tag k="name" v="nan" /><tag k="oneway" v="yes" /></way><way changeset="1" id="200" timestamp="2017-01-01T00:00:00Z" uid="1" user="osmnx" version="1"><nd ref="42434279" /><nd ref="42434271" /><tag k="highway" v="residential" /><tag k="lanes" v="3" /><tag k="maxspeed" v="25 mph" /><tag k="name" v="West 22nd Street" /><tag k="oneway" v="yes" /></way><way changeset="1" id="201" timestamp="2017-01-01T00:00:00Z" uid="1" user="osmnx" version="1"><nd ref="4443775464" /><nd ref="42435420" /><tag k="highway" v="tertiary" /><tag k="lanes" v="3" /><tag k="maxspeed" v="25 mph" /><tag k="name" v="West 30th Street" /><tag k="oneway" v="yes" /></way><way changeset="1" id="202" timestamp="2017-01-01T00:00:00Z" uid="1" user="osmnx" version="1"><nd ref="4443775464" /><nd ref="42427812" /><tag k="highway" v="secondary" /><tag k="lanes" v="3" /><tag k="maxspeed" v="nan" /><tag k="name" v="nan" /><tag k="oneway" v="yes" /></way><way changeset="1" id="203" timestamp="2017-01-01T00:00:00Z" uid="1" user="osmnx" version="1"><nd ref="42435420" /><nd ref="42430288" /><tag k="highway" v="tertiary" /><tag k="lanes" v="3" /><tag k="maxspeed" v="25 mph" /><tag k="name" v="West 30th Street" /><tag k="oneway" v="yes" /></way><way changeset="1" id="204" timestamp="2017-01-01T00:00:00Z" uid="1" user="osmnx" version="1"><nd ref="42435420" /><nd ref="4443775464" /><tag k="highway" v="tertiary" /><tag k="lanes" v="3" /><tag k="maxspeed" v="nan" /><tag k="name" v="nan" /><tag k="oneway" v="yes" /></way><way changeset="1" id="205" timestamp="2017-01-01T00:00:00Z" uid="1" user="osmnx" version="1"><nd ref="42435420" /><nd ref="42427805" /><tag k="highway" v="secondary" /><tag k="lanes" v="3" /><tag k="maxspeed" v="25 mph" /><tag k="name" v="7th Avenue" /><tag k="oneway" v="yes" /></way><way changeset="1" id="206" timestamp="2017-01-01T00:00:00Z" uid="1" user="osmnx" version="1"><nd ref="42435420" /><nd ref="42435422" /><tag k="highway" v="secondary" /><tag k="lanes" v="3" /><tag k="maxspeed" v="nan" /><tag k="name" v="nan" /><tag k="oneway" v="yes" /></way><way changeset="1" id="207" timestamp="2017-01-01T00:00:00Z" uid="1" user="osmnx" version="1"><nd ref="42439275" /><nd ref="42435603" /><tag k="highway" v="residential" /><tag k="lanes" v="3" /><tag k="maxspeed" v="25 mph" /><tag k="name" v="West 17th Street" /><tag k="oneway" v="yes" /></way><way changeset="1" id="208" timestamp="2017-01-01T00:00:00Z" uid="1" user="osmnx" version="1"><nd ref="42439275" /><nd ref="42430259" /><tag k="highway" v="residential" /><tag k="lanes" v="3" /><tag k="maxspeed" v="nan" /><tag k="name" v="nan" /><tag k="oneway" v="yes" /></way><way changeset="1" id="209" timestamp="2017-01-01T00:00:00Z" uid="1" user="osmnx" version="1"><nd ref="42439275" /><nd ref="42429661" /><tag k="highway" v="secondary" /><tag k="lanes" v="3" /><tag k="maxspeed" v="nan" /><tag k="name" v="nan" /><tag k="oneway" v="yes" /></way><way changeset="1" id="210" timestamp="2017-01-01T00:00:00Z" uid="1" user="osmnx" version="1"><nd ref="42439275" /><nd ref="42439830" /><tag k="highway" v="secondary" /><tag k="lanes" v="3" /><tag k="maxspeed" v="25 mph" /><tag k="name" v="7th Avenue" /><tag k="oneway" v="yes" /></way><way changeset="1" id="211" timestamp="2017-01-01T00:00:00Z" uid="1" user="osmnx" version="1"><nd ref="42427374" /><nd ref="42439834" /><tag k="highway" v="secondary" /><tag k="lanes" v="3" /><tag k="maxspeed" v="25 mph" /><tag k="name" v="7th Avenue" /><tag k="oneway" v="yes" /></way><way changeset="1" id="212" timestamp="2017-01-01T00:00:00Z" uid="1" user="osmnx" version="1"><nd ref="42427374" /><nd ref="42427371" /><tag k="highway" v="residential" /><tag k="lanes" v="3" /><tag k="maxspeed" v="25 mph" /><tag k="name" v="West 20th Street" /><tag k="oneway" v="yes" /></way><way changeset="1" id="213" timestamp="2017-01-01T00:00:00Z" uid="1" user="osmnx" version="1"><nd ref="42427374" /><nd ref="42439836" /><tag k="highway" v="secondary" /><tag k="lanes" v="3" /><tag k="maxspeed" v="nan" /><tag k="name" v="nan" /><tag k="oneway" v="yes" /></way><way changeset="1" id="214" timestamp="2017-01-01T00:00:00Z" uid="1" user="osmnx" version="1"><nd ref="42427374" /><nd ref="42427381" /><tag k="highway" v="residential" /><tag k="lanes" v="3" /><tag k="maxspeed" v="nan" /><tag k="name" v="nan" /><tag k="oneway" v="yes" /></way><way changeset="1" id="215" timestamp="2017-01-01T00:00:00Z" uid="1" user="osmnx" version="1"><nd ref="42427386" /><nd ref="42443674" /><tag k="highway" v="primary" /><tag k="lanes" v="3" /><tag k="maxspeed" v="nan" /><tag k="name" v="nan" /><tag k="oneway" v="yes" /></way><way changeset="1" id="216" timestamp="2017-01-01T00:00:00Z" uid="1" user="osmnx" version="1"><nd ref="42427386" /><nd ref="42427381" /><tag k="highway" v="residential" /><tag k="lanes" v="3" /><tag k="maxspeed" v="25 mph" /><tag k="name" v="West 20th Street" /><tag k="oneway" v="yes" /></way><way changeset="1" id="217" timestamp="2017-01-01T00:00:00Z" uid="1" user="osmnx" version="1"><nd ref="42438547" /><nd ref="42435633" /><tag k="highway" v="residential" /><tag k="lanes" v="3" /><tag k="maxspeed" v="nan" /><tag k="name" v="nan" /><tag k="oneway" v="yes" /></way><way changeset="1" id="218" timestamp="2017-01-01T00:00:00Z" uid="1" user="osmnx" version="1"><nd ref="42438547" /><nd ref="42430282" /><tag k="highway" v="residential" /><tag k="lanes" v="3" /><tag k="maxspeed" v="25 mph" /><tag k="name" v="West 28th Street" /><tag k="oneway" v="yes" /></way><way changeset="1" id="219" timestamp="2017-01-01T00:00:00Z" uid="1" user="osmnx" version="1"><nd ref="42438547" /><nd ref="42427805" /><tag k="highway" v="secondary" /><tag k="lanes" v="3" /><tag k="maxspeed" v="nan" /><tag k="name" v="nan" /><tag k="oneway" v="yes" /></way><way changeset="1" id="220" timestamp="2017-01-01T00:00:00Z" uid="1" user="osmnx" version="1"><nd ref="42438547" /><nd ref="42434807" /><tag k="highway" v="secondary" /><tag k="lanes" v="3" /><tag k="maxspeed" v="25 mph" /><tag k="name" v="7th Avenue" /><tag k="oneway" v="yes" /></way><way changeset="1" id="221" timestamp="2017-01-01T00:00:00Z" uid="1" user="osmnx" version="1"><nd ref="42427381" /><nd ref="42427386" /><tag k="highway" v="residential" /><tag k="lanes" v="3" /><tag k="maxspeed" v="nan" /><tag k="name" v="nan" /><tag k="oneway" v="yes" /></way><way changeset="1" id="222" timestamp="2017-01-01T00:00:00Z" uid="1" user="osmnx" version="1"><nd ref="42427381" /><nd ref="5849918502" /><tag k="highway" v="secondary" /><tag k="lanes" v="3" /><tag k="maxspeed" v="25 mph" /><tag k="name" v="8th Avenue" /><tag k="oneway" v="yes" /></way><way changeset="1" id="223" timestamp="2017-01-01T00:00:00Z" uid="1" user="osmnx" version="1"><nd ref="42427381" /><nd ref="42435610" /><tag k="highway" v="secondary" /><tag k="lanes" v="3" /><tag k="maxspeed" v="nan" /><tag k="name" v="nan" /><tag k="oneway" v="yes" /></way><way changeset="1" id="224" timestamp="2017-01-01T00:00:00Z" uid="1" user="osmnx" version="1"><nd ref="42427381" /><nd ref="42427374" /><tag k="highway" v="residential" /><tag k="lanes" v="3" /><tag k="maxspeed" v="25 mph" /><tag k="name" v="West 20th Street" /><tag k="oneway" v="yes" /></way><way changeset="1" id="225" timestamp="2017-01-01T00:00:00Z" uid="1" user="osmnx" version="1"><nd ref="42434807" /><nd ref="42439842" /><tag k="highway" v="secondary" /><tag k="lanes" v="3" /><tag k="maxspeed" v="25 mph" /><tag k="name" v="7th Avenue" /><tag k="oneway" v="yes" /></way><way changeset="1" id="226" timestamp="2017-01-01T00:00:00Z" uid="1" user="osmnx" version="1"><nd ref="42434807" /><nd ref="42438547" /><tag k="highway" v="secondary" /><tag k="lanes" v="3" /><tag k="maxspeed" v="nan" /><tag k="name" v="nan" /><tag k="oneway" v="yes" /></way><way changeset="1" id="227" timestamp="2017-01-01T00:00:00Z" uid="1" user="osmnx" version="1"><nd ref="42434807" /><nd ref="42434810" /><tag k="highway" v="unclassified" /><tag k="lanes" v="3" /><tag k="maxspeed" v="25 mph" /><tag k="name" v="West 27th Street" /><tag k="oneway" v="yes" /></way><way changeset="1" id="228" timestamp="2017-01-01T00:00:00Z" uid="1" user="osmnx" version="1"><nd ref="42434807" /><nd ref="42430279" /><tag k="highway" v="residential" /><tag k="lanes" v="3" /><tag k="maxspeed" v="nan" /><tag k="name" v="nan" /><tag k="oneway" v="yes" /></way><way changeset="1" id="229" timestamp="2017-01-01T00:00:00Z" uid="1" user="osmnx" version="1"><nd ref="42437881" /><nd ref="42428201" /><tag k="highway" v="secondary" /><tag k="lanes" v="3" /><tag k="maxspeed" v="25 mph" /><tag k="name" v="East 23rd Street" /><tag k="oneway" v="yes" /></way><way changeset="1" id="230" timestamp="2017-01-01T00:00:00Z" uid="1" user="osmnx" version="1"><nd ref="42437881" /><nd ref="42434268" /><tag k="highway" v="secondary" /><tag k="lanes" v="3" /><tag k="maxspeed" v="25 mph" /><tag k="name" v="5th Avenue" /><tag k="oneway" v="yes" /></way><way changeset="1" id="231" timestamp="2017-01-01T00:00:00Z" uid="1" user="osmnx" version="1"><nd ref="42437881" /><nd ref="42428206" /><tag k="highway" v="secondary" /><tag k="lanes" v="3" /><tag k="maxspeed" v="nan" /><tag k="name" v="nan" /><tag k="oneway" v="yes" /></way><way changeset="1" id="232" timestamp="2017-01-01T00:00:00Z" uid="1" user="osmnx" version="1"><nd ref="42437881" /><nd ref="42430271" /><tag k="highway" v="secondary" /><tag k="lanes" v="3" /><tag k="maxspeed" v="25 mph" /><tag k="name" v="West 23rd Street" /><tag k="oneway" v="yes" /></way><way changeset="1" id="233" timestamp="2017-01-01T00:00:00Z" uid="1" user="osmnx" version="1"><nd ref="42434810" /><nd ref="42435632" /><tag k="highway" v="secondary" /><tag k="lanes" v="3" /><tag k="maxspeed" v="nan" /><tag k="name" v="nan" /><tag k="oneway" v="yes" /></way><way changeset="1" id="234" timestamp="2017-01-01T00:00:00Z" uid="1" user="osmnx" version="1"><nd ref="42434810" /><nd ref="42435633" /><tag k="highway" v="secondary" /><tag k="lanes" v="3" /><tag k="maxspeed" v="25 mph" /><tag k="name" v="8th Avenue" /><tag k="oneway" v="yes" /></way><way changeset="1" id="235" timestamp="2017-01-01T00:00:00Z" uid="1" user="osmnx" version="1"><nd ref="42434810" /><nd ref="42434807" /><tag k="highway" v="unclassified" /><tag k="lanes" v="3" /><tag k="maxspeed" v="nan" /><tag k="name" v="nan" /><tag k="oneway" v="yes" /></way><way changeset="1" id="236" timestamp="2017-01-01T00:00:00Z" uid="1" user="osmnx" version="1"><nd ref="42428223" /><nd ref="42430282" /><tag k="highway" v="residential" /><tag k="lanes" v="3" /><tag k="maxspeed" v="nan" /><tag k="name" v="nan" /><tag k="oneway" v="yes" /></way><way changeset="1" id="237" timestamp="2017-01-01T00:00:00Z" uid="1" user="osmnx" version="1"><nd ref="42428223" /><nd ref="42428220" /><tag k="highway" v="residential" /><tag k="lanes" v="3" /><tag k="maxspeed" v="25 mph" /><tag k="name" v="Broadway" /><tag k="oneway" v="yes" /></way><way changeset="1" id="238" timestamp="2017-01-01T00:00:00Z" uid="1" user="osmnx" version="1"><nd ref="42445310" /><nd ref="358447541" /><tag k="highway" v="residential" /><tag k="lanes" v="3" /><tag k="maxspeed" v="25 mph" /><tag k="name" v="West 26th Street" /><tag k="oneway" v="yes" /></way><way changeset="1" id="239" timestamp="2017-01-01T00:00:00Z" uid="1" user="osmnx" version="1"><nd ref="42437909" /><nd ref="42435624" /><tag k="highway" v="secondary" /><tag k="lanes" v="3" /><tag k="maxspeed" v="nan" /><tag k="name" v="nan" /><tag k="oneway" v="yes" /></way><way changeset="1" id="240" timestamp="2017-01-01T00:00:00Z" uid="1" user="osmnx" version="1"><nd ref="42437909" /><nd ref="42427477" /><tag k="highway" v="primary" /><tag k="lanes" v="3" /><tag k="maxspeed" v="nan" /><tag k="name" v="nan" /><tag k="oneway" v="yes" /></way><way changeset="1" id="241" timestamp="2017-01-01T00:00:00Z" uid="1" user="osmnx" version="1"><nd ref="42437909" /><nd ref="42434279" /><tag k="highway" v="primary" /><tag k="lanes" v="3" /><tag k="maxspeed" v="25 mph" /><tag k="name" v="9th Avenue" /><tag k="oneway" v="yes" /></way></osm>